{"type":"FeatureCollection", "features": [
{"type":"Feature","geometry":{"type":"MultiPolygon","coordinates":[[[[-102.84889,22.01945],[-102.85127,22.02258],[-102.84513,22.02165],[-102.84914,22.02457],[-102.84513,22.02664],[-102.84523,22.02818],[-102.84909,22.02657],[-102.85177,22.02353],[-102.85427,22.02554],[-102.85575,22.01442],[-102.85436,22.01244],[-102.85445,22.01121],[-102.84932,22.01448],[-102.85227,22.01539],[-102.84888,22.01926],[-102.84889,22.01945]]],[[[-102.85363,22.00594],[-102.84961,22.00959],[-102.85313,22.01024],[-102.85363,22.00594]]],[[[-102.85641,22.00147],[-102.85376,22.00588],[-102.8567,22.00353],[-102.85641,22.00147]]],[[[-102.84784,22.04303],[-102.84448,22.04476],[-102.84476,22.05035],[-102.84583,22.04565],[-102.84658,22.05131],[-102.84977,22.052],[-102.84809,22.05525],[-102.85144,22.05684],[-102.85285,22.05708],[-102.85487,22.05374],[-102.85399,22.05213],[-102.85923,22.0505],[-102.86042,22.04572],[-102.86864,22.03505],[-102.87276,22.0311],[-102.87522,22.02307],[-102.87938,22.02262],[-102.88702,22.01407],[-102.88608,22.01179],[-102.88226,22.01043],[-102.87824,22.01284],[-102.87957,22.00911],[-102.88384,22.00694],[-102.88128,22.00485],[-102.8827,22.00257],[-102.88168,21.99981],[-102.88451,22.00021],[-102.88174,21.99745],[-102.87767,22.00115],[-102.87746,22.00431],[-102.871,22.00351],[-102.87097,22.00345],[-102.87474,22.0022],[-102.87688,21.99416],[-102.87578,21.98687],[-102.87796,21.98217],[-102.87345,21.97909],[-102.871,21.98302],[-102.86764,21.98236],[-102.8688,21.98483],[-102.86335,21.99342],[-102.86421,21.9963],[-102.86031,22.00211],[-102.85993,22.00207],[-102.8637,21.9964],[-102.86175,21.99357],[-102.86414,21.9918],[-102.86352,21.98893],[-102.86799,21.98376],[-102.86455,21.98078],[-102.86055,21.9854],[-102.85751,21.98639],[-102.85973,21.98957],[-102.85954,21.99265],[-102.85199,21.99571],[-102.85083,21.99701],[-102.85644,21.99874],[-102.85638,22.00103],[-102.85909,22.00196],[-102.85902,22.00514],[-102.85575,22.00787],[-102.85509,22.01316],[-102.85626,22.01424],[-102.85611,22.01765],[-102.85692,22.01509],[-102.85842,22.01754],[-102.85416,22.02736],[-102.85266,22.02803],[-102.85501,22.03278],[-102.8508,22.03939],[-102.8499,22.04402],[-102.84784,22.04303]]],[[[-102.84639,22.03529],[-102.84286,22.03591],[-102.84213,22.0369],[-102.84524,22.03939],[-102.84584,22.03967],[-102.84912,22.03926],[-102.84795,22.04124],[-102.85204,22.03744],[-102.84899,22.03454],[-102.84639,22.03529]]],[[[-102.84653,22.02962],[-102.84454,22.03115],[-102.84416,22.0317],[-102.84605,22.03321],[-102.84657,22.03397],[-102.84677,22.03437],[-102.85203,22.03022],[-102.85206,22.02784],[-102.84653,22.02962]]],[[[-102.8413,22.06193],[-102.8418,22.06411],[-102.844,22.06436],[-102.84701,22.0616],[-102.84697,22.05816],[-102.84472,22.05844],[-102.8413,22.06193]]],[[[-102.87706,22.03486],[-102.87523,22.03557],[-102.87437,22.03605],[-102.8729,22.03763],[-102.87036,22.03824],[-102.86779,22.0481],[-102.86765,22.05332],[-102.87183,22.05738],[-102.87474,22.05454],[-102.87331,22.05143],[-102.87633,22.0531],[-102.87862,22.04817],[-102.87875,22.04178],[-102.88188,22.03763],[-102.87706,22.03486]]],[[[-104.0901,22.65454],[-104.09024,22.65782],[-104.09408,22.65868],[-104.09506,22.65639],[-104.09281,22.65173],[-104.09737,22.64803],[-104.10014,22.65149],[-104.10136,22.64758],[-104.09954,22.64338],[-104.09694,22.64346],[-104.09755,22.64087],[-104.10038,22.64128],[-104.09728,22.63027],[-104.08917,22.62975],[-104.08761,22.63657],[-104.09133,22.63632],[-104.08997,22.63803],[-104.09091,22.64235],[-104.08985,22.64359],[-104.0901,22.65454]]],[[[-103.32635,21.74548],[-103.326,21.74505],[-103.32338,21.74639],[-103.31914,21.7437],[-103.31966,21.74124],[-103.31699,21.74107],[-103.31628,21.74244],[-103.31973,21.74777],[-103.32437,21.7492],[-103.32283,21.75224],[-103.32307,21.75745],[-103.32534,21.75761],[-103.32276,21.76097],[-103.32535,21.75956],[-103.32935,21.75085],[-103.32763,21.74704],[-103.32635,21.74548]]],[[[-103.32437,21.74263],[-103.32439,21.74249],[-103.32527,21.74123],[-103.32559,21.74077],[-103.32398,21.74007],[-103.32556,21.73409],[-103.32693,21.73407],[-103.32906,21.72828],[-103.32912,21.72759],[-103.32732,21.72271],[-103.3281,21.72013],[-103.32698,21.71641],[-103.33012,21.71473],[-103.33019,21.71276],[-103.32639,21.70942],[-103.32417,21.71704],[-103.32428,21.72155],[-103.32101,21.72136],[-103.31851,21.72614],[-103.32101,21.72729],[-103.32261,21.73747],[-103.32103,21.74029],[-103.32437,21.74263]],[[-103.32331,21.72679],[-103.32422,21.72322],[-103.32556,21.72637],[-103.32358,21.72745],[-103.32331,21.72679]]],[[[-103.31996,21.75657],[-103.31601,21.75695],[-103.31874,21.7582],[-103.31996,21.75657]]],[[[-103.31754,21.76231],[-103.32173,21.76153],[-103.31885,21.7603],[-103.31754,21.76231]]],[[[-102.93366,21.81657],[-102.93703,21.81426],[-102.93693,21.80741],[-102.93175,21.80674],[-102.92805,21.80824],[-102.92709,21.81165],[-102.93077,21.81279],[-102.92985,21.81336],[-102.92977,21.81341],[-102.9287,21.81518],[-102.92872,21.81523],[-102.92937,21.81656],[-102.92961,21.8169],[-102.93323,21.81858],[-102.93366,21.81657]]],[[[-102.87928,21.9751],[-102.88083,21.97634],[-102.8838,21.96947],[-102.88891,21.97104],[-102.89046,21.96857],[-102.88631,21.966],[-102.88887,21.96166],[-102.889,21.95784],[-102.89182,21.95487],[-102.89005,21.9508],[-102.88736,21.95053],[-102.88624,21.95475],[-102.88335,21.95376],[-102.88552,21.95127],[-102.88281,21.94944],[-102.87886,21.95643],[-102.87825,21.95971],[-102.87293,21.96474],[-102.8665,21.96807],[-102.86433,21.97305],[-102.86702,21.97561],[-102.86885,21.97441],[-102.87313,21.97616],[-102.87442,21.97387],[-102.87928,21.9751]]],[[[-102.8888,21.9179],[-102.88675,21.91882],[-102.88646,21.91893],[-102.88609,21.91908],[-102.88547,21.91931],[-102.88387,21.92149],[-102.88827,21.92151],[-102.8888,21.9179]]],[[[-102.88025,21.93501],[-102.87781,21.93742],[-102.87813,21.94282],[-102.8773,21.94692],[-102.87953,21.94686],[-102.87984,21.94431],[-102.88423,21.9442],[-102.88352,21.94713],[-102.88602,21.9472],[-102.88705,21.94948],[-102.88919,21.94287],[-102.89288,21.94025],[-102.88966,21.93578],[-102.8926,21.93217],[-102.89197,21.93631],[-102.89547,21.93726],[-102.89345,21.94042],[-102.89083,21.94213],[-102.8903,21.94642],[-102.88923,21.94406],[-102.88811,21.94943],[-102.89167,21.94639],[-102.89583,21.94486],[-102.89753,21.94032],[-102.9023,21.93684],[-102.90375,21.93418],[-102.90278,21.93007],[-102.9065,21.92791],[-102.90649,21.92509],[-102.91055,21.929],[-102.91146,21.92542],[-102.90896,21.92166],[-102.91072,21.91375],[-102.91501,21.91412],[-102.91098,21.90943],[-102.911,21.90733],[-102.91635,21.90512],[-102.91065,21.90346],[-102.91212,21.90181],[-102.91177,21.89742],[-102.90785,21.89784],[-102.90742,21.90106],[-102.90402,21.89965],[-102.90629,21.89432],[-102.91534,21.88167],[-102.91749,21.88195],[-102.91828,21.87536],[-102.91758,21.87286],[-102.91019,21.8795],[-102.90813,21.88421],[-102.901,21.8939],[-102.90011,21.89947],[-102.9014,21.90243],[-102.90197,21.90671],[-102.90099,21.90747],[-102.89878,21.91754],[-102.90058,21.91803],[-102.90529,21.91489],[-102.90735,21.91566],[-102.90725,21.91873],[-102.9039,21.91605],[-102.90054,21.91876],[-102.89859,21.91807],[-102.89753,21.91583],[-102.89433,21.92046],[-102.8905,21.92043],[-102.89033,21.9224],[-102.89116,21.92275],[-102.89505,21.92254],[-102.894,21.92545],[-102.89623,21.92566],[-102.89798,21.93162],[-102.89621,21.93552],[-102.89515,21.93239],[-102.88585,21.93035],[-102.88426,21.93451],[-102.88889,21.93645],[-102.88538,21.93688],[-102.88025,21.93501]],[[-102.89999,21.92995],[-102.90031,21.9242],[-102.90227,21.92873],[-102.89999,21.92995]]],[[[-102.89667,21.90779],[-102.89598,21.90778],[-102.89341,21.90768],[-102.89136,21.91051],[-102.8888,21.91131],[-102.88985,21.91423],[-102.88765,21.91524],[-102.89189,21.91426],[-102.89052,21.91111],[-102.89723,21.91404],[-102.89938,21.91309],[-102.90144,21.90378],[-102.89832,21.90317],[-102.89434,21.9037],[-102.89464,21.90557],[-102.89667,21.90779]]],[[[-102.90802,21.87165],[-102.90709,21.87392],[-102.91469,21.87492],[-102.9168,21.87223],[-102.91225,21.8737],[-102.91228,21.87029],[-102.91806,21.86828],[-102.91952,21.87066],[-102.92154,21.86887],[-102.9182,21.86528],[-102.91653,21.86734],[-102.91242,21.8672],[-102.9089,21.86897],[-102.90802,21.87165]]],[[[-102.96127,21.87455],[-102.96602,21.87414],[-102.96414,21.87143],[-102.97113,21.87],[-102.96737,21.85939],[-102.96506,21.86077],[-102.95971,21.85969],[-102.95774,21.86218],[-102.96207,21.86631],[-102.95854,21.8714],[-102.9546,21.87058],[-102.9546,21.87566],[-102.96065,21.87135],[-102.96127,21.87455]]],[[[-102.91806,21.86393],[-102.91924,21.86003],[-102.92164,21.86122],[-102.92712,21.85385],[-102.92864,21.85362],[-102.93131,21.84867],[-102.92878,21.84636],[-102.92748,21.84223],[-102.92398,21.83832],[-102.93017,21.8395],[-102.93458,21.8377],[-102.92966,21.8358],[-102.92517,21.83534],[-102.92325,21.8324],[-102.92758,21.83306],[-102.92705,21.8348],[-102.93452,21.83514],[-102.92949,21.83174],[-102.92434,21.83133],[-102.92617,21.82889],[-102.92943,21.82924],[-102.93152,21.82686],[-102.92201,21.83024],[-102.92296,21.83145],[-102.92064,21.83494],[-102.92367,21.842],[-102.92107,21.84908],[-102.91571,21.85569],[-102.91571,21.86229],[-102.91806,21.86393]]],[[[-102.9249,21.82437],[-102.92076,21.8302],[-102.92638,21.82811],[-102.93072,21.82071],[-102.93052,21.81821],[-102.92589,21.82203],[-102.9249,21.82437]]],[[[-102.93878,21.83693],[-102.94285,21.83414],[-102.94854,21.83211],[-102.94718,21.82955],[-102.94917,21.82872],[-102.95261,21.82404],[-102.95458,21.82319],[-102.95267,21.82111],[-102.94754,21.82197],[-102.94537,21.82574],[-102.9377,21.8355],[-102.93878,21.83693]]],[[[-102.98488,21.86925],[-102.98649,21.86797],[-102.99414,21.87001],[-102.99017,21.86749],[-102.98596,21.86652],[-102.98269,21.86351],[-102.98053,21.86328],[-102.98488,21.86925]]],[[[-102.98602,21.89582],[-102.98307,21.89419],[-102.98814,21.89111],[-102.99146,21.89152],[-102.98815,21.88541],[-102.9837,21.88927],[-102.98662,21.88296],[-102.97676,21.88158],[-102.97527,21.87811],[-102.97395,21.88295],[-102.97239,21.88168],[-102.97218,21.88534],[-102.97621,21.88742],[-102.97147,21.88669],[-102.96821,21.88444],[-102.96662,21.88547],[-102.97118,21.8883],[-102.97537,21.89269],[-102.97304,21.8952],[-102.97735,21.89632],[-102.97949,21.89386],[-102.98206,21.8964],[-102.98602,21.89582]]],[[[-102.89464,21.95132],[-102.89872,21.94904],[-102.89882,21.94728],[-102.89324,21.94648],[-102.89309,21.95014],[-102.89464,21.95132]]],[[[-102.88943,21.92839],[-102.89464,21.92956],[-102.89386,21.92629],[-102.88904,21.92551],[-102.88567,21.92765],[-102.88943,21.92839]]],[[[-103.20399,21.24968],[-103.20755,21.24742],[-103.2109,21.24706],[-103.2087,21.24491],[-103.20494,21.24557],[-103.20399,21.24968]]],[[[-103.13664,21.09088],[-103.1387,21.09238],[-103.1418,21.0901],[-103.13872,21.09037],[-103.13758,21.08774],[-103.14638,21.085],[-103.14883,21.08756],[-103.15099,21.08563],[-103.14672,21.08267],[-103.14574,21.08386],[-103.14047,21.08231],[-103.14115,21.07981],[-103.13863,21.07933],[-103.13409,21.07135],[-103.13279,21.07371],[-103.13502,21.08078],[-103.13739,21.08127],[-103.13693,21.08427],[-103.13384,21.08298],[-103.13116,21.0841],[-103.13052,21.08088],[-103.12798,21.08204],[-103.13042,21.08324],[-103.12904,21.08672],[-103.12448,21.08843],[-103.12718,21.08913],[-103.13198,21.08717],[-103.13326,21.08978],[-103.13664,21.09088]]],[[[-103.12341,21.07967],[-103.12423,21.08205],[-103.12667,21.08073],[-103.12341,21.07967]]],[[[-103.1062,21.44166],[-103.10575,21.44001],[-103.10476,21.43863],[-103.10834,21.43483],[-103.11072,21.43009],[-103.1119,21.42766],[-103.11709,21.4262],[-103.11749,21.4218],[-103.12041,21.41826],[-103.12084,21.41506],[-103.11775,21.41576],[-103.11521,21.42193],[-103.11346,21.41949],[-103.10939,21.42692],[-103.10554,21.428],[-103.10295,21.43407],[-103.10309,21.43363],[-103.10325,21.43313],[-103.10425,21.42572],[-103.10184,21.42391],[-103.09734,21.42512],[-103.09558,21.42768],[-103.09762,21.42882],[-103.10158,21.4257],[-103.10395,21.4259],[-103.09986,21.42951],[-103.09951,21.43203],[-103.10172,21.43351],[-103.09927,21.43489],[-103.10165,21.43891],[-103.09468,21.44684],[-103.09388,21.45263],[-103.09203,21.44844],[-103.08716,21.4464],[-103.08403,21.44335],[-103.07939,21.44496],[-103.07927,21.45009],[-103.09022,21.45067],[-103.09132,21.45477],[-103.08679,21.46012],[-103.09136,21.46057],[-103.09083,21.46243],[-103.09261,21.47236],[-103.08937,21.47592],[-103.09508,21.47612],[-103.09549,21.47167],[-103.09793,21.46637],[-103.1026,21.4586],[-103.09605,21.47168],[-103.09567,21.47634],[-103.0923,21.47747],[-103.09153,21.47995],[-103.08814,21.48005],[-103.08813,21.47708],[-103.08457,21.47582],[-103.08384,21.47744],[-103.08696,21.47897],[-103.08508,21.48255],[-103.0867,21.4852],[-103.09019,21.48621],[-103.08702,21.48773],[-103.0905,21.48863],[-103.08929,21.49117],[-103.09309,21.49351],[-103.09341,21.49698],[-103.09791,21.49951],[-103.09974,21.49831],[-103.09933,21.50177],[-103.10491,21.49948],[-103.10742,21.496],[-103.10857,21.49724],[-103.10745,21.50124],[-103.11235,21.50321],[-103.11301,21.49987],[-103.11623,21.49707],[-103.11038,21.49399],[-103.10615,21.49532],[-103.10401,21.49458],[-103.10278,21.49799],[-103.09999,21.49652],[-103.10114,21.49209],[-103.09885,21.4947],[-103.09679,21.49276],[-103.09896,21.48729],[-103.09469,21.48133],[-103.0954,21.48051],[-103.0999,21.48466],[-103.10471,21.4855],[-103.09806,21.47943],[-103.10451,21.48065],[-103.11113,21.4843],[-103.1076,21.48059],[-103.10343,21.47864],[-103.10644,21.47751],[-103.10431,21.47427],[-103.10756,21.47374],[-103.10887,21.47169],[-103.10095,21.46861],[-103.10929,21.46946],[-103.11175,21.46574],[-103.10795,21.46559],[-103.10792,21.4617],[-103.11106,21.45838],[-103.11415,21.45945],[-103.11059,21.45592],[-103.10976,21.45155],[-103.11116,21.44243],[-103.11169,21.44116],[-103.11582,21.44227],[-103.11702,21.44223],[-103.11573,21.439],[-103.11263,21.43584],[-103.11681,21.43737],[-103.12037,21.44245],[-103.12601,21.43898],[-103.12224,21.43689],[-103.12061,21.43816],[-103.11758,21.43491],[-103.11718,21.4294],[-103.12137,21.42593],[-103.12592,21.41806],[-103.12577,21.40963],[-103.12484,21.40831],[-103.12821,21.39551],[-103.13099,21.39466],[-103.13155,21.39094],[-103.13612,21.3876],[-103.14303,21.38728],[-103.14335,21.38509],[-103.14015,21.38314],[-103.13747,21.38379],[-103.13343,21.38712],[-103.13084,21.3867],[-103.12883,21.3907],[-103.12517,21.39268],[-103.12323,21.39592],[-103.12454,21.39707],[-103.1243,21.40202],[-103.12219,21.40573],[-103.12402,21.40798],[-103.12369,21.41191],[-103.12132,21.41931],[-103.11833,21.42288],[-103.11742,21.42705],[-103.11269,21.4307],[-103.10842,21.43902],[-103.1062,21.44166]]],[[[-103.01331,21.72948],[-103.01328,21.7292],[-103.01325,21.72892],[-103.01312,21.72874],[-103.0127,21.72831],[-103.01264,21.72828],[-103.00806,21.71958],[-103.00592,21.71799],[-103.00795,21.71188],[-103.01061,21.71245],[-103.00899,21.70917],[-103.00438,21.70844],[-103.00355,21.70636],[-103.00224,21.70756],[-103.00004,21.70722],[-103.00222,21.71105],[-103.00057,21.71543],[-103.00054,21.71591],[-103.00143,21.71611],[-103.005,21.71777],[-103.00622,21.71915],[-103.00815,21.72401],[-103.0075,21.72579],[-103.01266,21.72931],[-103.01802,21.73568],[-103.01331,21.72948]]],[[[-102.99291,21.71507],[-102.9922,21.7151],[-102.98827,21.71577],[-102.98335,21.71702],[-102.9925,21.72104],[-102.99848,21.72194],[-103.001,21.71898],[-103.00054,21.71591],[-102.99568,21.7152],[-102.99797,21.7153],[-102.9996,21.7151],[-102.99823,21.71052],[-102.99401,21.70997],[-102.99633,21.71239],[-102.99539,21.71395],[-102.99208,21.71285],[-102.99291,21.71507]]],[[[-102.97225,21.71807],[-102.97337,21.72932],[-102.97569,21.73031],[-102.97635,21.72366],[-102.97412,21.72227],[-102.97382,21.71927],[-102.97779,21.71978],[-102.9784,21.71742],[-102.98618,21.71612],[-102.98161,21.71362],[-102.98243,21.70944],[-102.98111,21.70924],[-102.97391,21.70352],[-102.9739,21.71009],[-102.97859,21.71363],[-102.97548,21.71599],[-102.97222,21.71542],[-102.97225,21.71807]]],[[[-102.96782,21.72093],[-102.96943,21.72146],[-102.96992,21.72194],[-102.96905,21.72464],[-102.97168,21.72313],[-102.97197,21.71954],[-102.96782,21.72093]]],[[[-102.93517,21.71073],[-102.93611,21.71461],[-102.94251,21.7155],[-102.94573,21.71594],[-102.94855,21.71499],[-102.95028,21.71303],[-102.94954,21.71106],[-102.94498,21.70686],[-102.94968,21.70307],[-102.94938,21.69707],[-102.94151,21.70718],[-102.94303,21.70952],[-102.94718,21.71214],[-102.94638,21.71373],[-102.93594,21.70615],[-102.93933,21.70533],[-102.93277,21.70477],[-102.93241,21.71135],[-102.93517,21.71073]]],[[[-102.92981,21.70944],[-102.92994,21.70765],[-102.92659,21.70676],[-102.92431,21.71002],[-102.92403,21.71514],[-102.92091,21.70993],[-102.92125,21.71356],[-102.92375,21.71753],[-102.93004,21.71494],[-102.92904,21.71215],[-102.92981,21.70944]]],[[[-102.8692,21.72515],[-102.86872,21.72532],[-102.86833,21.7254],[-102.86985,21.7276],[-102.86486,21.72833],[-102.86168,21.72841],[-102.86133,21.72856],[-102.86074,21.72866],[-102.85949,21.72842],[-102.85853,21.72733],[-102.85676,21.72228],[-102.85399,21.72587],[-102.84862,21.73206],[-102.84854,21.72918],[-102.85099,21.72889],[-102.85333,21.72578],[-102.85241,21.72567],[-102.84981,21.72394],[-102.84722,21.71992],[-102.84757,21.71982],[-102.8478,21.71983],[-102.8482,21.71984],[-102.84997,21.71591],[-102.85081,21.72073],[-102.85596,21.72237],[-102.85922,21.71746],[-102.85657,21.71582],[-102.85393,21.71834],[-102.84863,21.71199],[-102.84838,21.71548],[-102.84848,21.71569],[-102.84855,21.71585],[-102.84837,21.71771],[-102.84379,21.71728],[-102.84378,21.71753],[-102.84409,21.718],[-102.84088,21.71887],[-102.83461,21.72335],[-102.83792,21.72408],[-102.84179,21.72461],[-102.84318,21.72433],[-102.84524,21.72512],[-102.84421,21.72611],[-102.84387,21.72647],[-102.843,21.72733],[-102.84212,21.72755],[-102.84396,21.72993],[-102.84054,21.72979],[-102.83924,21.73152],[-102.83644,21.73565],[-102.83721,21.73733],[-102.8322,21.73729],[-102.83152,21.73728],[-102.83252,21.73953],[-102.83087,21.74168],[-102.83073,21.74197],[-102.82656,21.74122],[-102.82637,21.74224],[-102.8264,21.74491],[-102.82638,21.74565],[-102.8247,21.74562],[-102.82381,21.74978],[-102.82241,21.74906],[-102.82391,21.75054],[-102.82532,21.74792],[-102.82949,21.74723],[-102.83309,21.74406],[-102.83828,21.74564],[-102.83577,21.75067],[-102.83892,21.74773],[-102.8412,21.7505],[-102.84351,21.74996],[-102.8465,21.74536],[-102.84903,21.74627],[-102.84962,21.7421],[-102.84529,21.74434],[-102.84667,21.74091],[-102.85141,21.74028],[-102.85394,21.74414],[-102.85288,21.74585],[-102.86029,21.74247],[-102.86293,21.74582],[-102.86415,21.74351],[-102.86103,21.74187],[-102.86362,21.74089],[-102.85759,21.73706],[-102.86662,21.73792],[-102.8682,21.7321],[-102.87036,21.73118],[-102.87263,21.73671],[-102.87547,21.73414],[-102.88015,21.7333],[-102.87868,21.73089],[-102.87511,21.73215],[-102.87249,21.72962],[-102.87374,21.72769],[-102.87228,21.72482],[-102.86948,21.72505],[-102.8692,21.72515]],[[-102.86268,21.73679],[-102.86019,21.73373],[-102.863,21.73179],[-102.86585,21.73462],[-102.86268,21.73679]]],[[[-102.83905,21.70299],[-102.83912,21.70246],[-102.83723,21.70368],[-102.84078,21.70438],[-102.84079,21.70436],[-102.83905,21.70299]]],[[[-103.04992,21.52156],[-103.04832,21.52293],[-103.05171,21.52403],[-103.0519,21.52831],[-103.05595,21.52242],[-103.04992,21.52156]]],[[[-103.06256,21.52175],[-103.06383,21.51913],[-103.06068,21.51373],[-103.05488,21.51688],[-103.05322,21.51756],[-103.05267,21.51812],[-103.05548,21.51757],[-103.05852,21.51899],[-103.05566,21.52421],[-103.06147,21.52521],[-103.06256,21.52175]]],[[[-103.07708,21.52941],[-103.07899,21.52968],[-103.08143,21.51941],[-103.0792,21.51671],[-103.07544,21.51513],[-103.07296,21.5173],[-103.06962,21.51699],[-103.07248,21.51995],[-103.07566,21.51769],[-103.07569,21.52125],[-103.07772,21.52462],[-103.07704,21.52918],[-103.07708,21.52941]]],[[[-103.09317,21.52136],[-103.09367,21.52186],[-103.09368,21.52187],[-103.09378,21.52207],[-103.09384,21.52224],[-103.09628,21.52326],[-103.09581,21.51892],[-103.09093,21.51988],[-103.09317,21.52136]]],[[[-103.03471,21.7167],[-103.03776,21.71665],[-103.03413,21.71308],[-103.04232,21.70932],[-103.04232,21.70654],[-103.03659,21.70929],[-103.02978,21.70992],[-103.02718,21.70432],[-103.02467,21.70493],[-103.02406,21.70204],[-103.02157,21.70365],[-103.02275,21.70612],[-103.01905,21.70819],[-103.01501,21.70701],[-103.0111,21.70902],[-103.02137,21.711],[-103.02759,21.70913],[-103.02777,21.71302],[-103.03471,21.7167]]],[[[-103.02268,21.71191],[-103.02239,21.71415],[-103.02618,21.7159],[-103.02652,21.71215],[-103.02268,21.71191]]],[[[-102.98505,21.70877],[-102.98645,21.70649],[-102.99168,21.70402],[-102.99409,21.70496],[-102.99374,21.70717],[-102.99754,21.70748],[-102.99864,21.70599],[-103.00204,21.70712],[-102.99732,21.70179],[-102.99577,21.6989],[-102.99164,21.69591],[-102.98901,21.69541],[-102.98861,21.6923],[-102.9853,21.69157],[-102.98394,21.69402],[-102.98059,21.69319],[-102.98356,21.68842],[-102.99019,21.68917],[-102.98687,21.68605],[-102.99127,21.6798],[-102.98125,21.67535],[-102.97984,21.67256],[-102.97656,21.67171],[-102.97412,21.67764],[-102.97871,21.68176],[-102.98099,21.68112],[-102.98682,21.68346],[-102.97952,21.68184],[-102.97842,21.6857],[-102.98104,21.68826],[-102.97942,21.69261],[-102.9738,21.69072],[-102.97286,21.68903],[-102.97266,21.69613],[-102.96407,21.69837],[-102.96149,21.69398],[-102.95698,21.69344],[-102.95591,21.69571],[-102.95334,21.69311],[-102.95029,21.69453],[-102.95631,21.69699],[-102.95482,21.69904],[-102.95902,21.70274],[-102.96302,21.7034],[-102.9646,21.70514],[-102.97205,21.70776],[-102.97186,21.70322],[-102.96634,21.70015],[-102.97245,21.70024],[-102.97457,21.70155],[-102.98527,21.70135],[-102.9857,21.69898],[-102.99018,21.70128],[-102.98705,21.70338],[-102.98508,21.70675],[-102.98151,21.70575],[-102.98505,21.70877]]],[[[-102.94544,21.69837],[-102.94577,21.70137],[-102.94745,21.69811],[-102.94577,21.69647],[-102.94285,21.68953],[-102.94041,21.69108],[-102.93754,21.69131],[-102.93591,21.69414],[-102.93958,21.6948],[-102.94033,21.69633],[-102.93517,21.69913],[-102.94037,21.69959],[-102.94278,21.70098],[-102.94544,21.69837]]],[[[-102.91695,21.68532],[-102.91747,21.68948],[-102.9202,21.68701],[-102.92258,21.6881],[-102.922,21.68523],[-102.92471,21.68481],[-102.9282,21.68194],[-102.9254,21.67758],[-102.93067,21.67872],[-102.92815,21.68131],[-102.93302,21.68092],[-102.93293,21.67765],[-102.92772,21.67396],[-102.93019,21.67352],[-102.93892,21.6756],[-102.9401,21.67128],[-102.93626,21.67345],[-102.93288,21.6735],[-102.92846,21.66917],[-102.92291,21.6669],[-102.92231,21.6701],[-102.92682,21.67064],[-102.92777,21.67259],[-102.92144,21.67741],[-102.92184,21.68027],[-102.92545,21.68162],[-102.91695,21.68532]]],[[[-102.91285,21.68464],[-102.91409,21.68296],[-102.90933,21.68454],[-102.91161,21.68782],[-102.91272,21.68481],[-102.91285,21.68464]]],[[[-102.916,21.69394],[-102.91371,21.6936],[-102.91441,21.69886],[-102.91132,21.69883],[-102.91264,21.70207],[-102.91018,21.70322],[-102.90861,21.70792],[-102.91103,21.70936],[-102.91679,21.70121],[-102.9205,21.70076],[-102.91873,21.70528],[-102.92162,21.70143],[-102.92001,21.69839],[-102.92077,21.69541],[-102.92324,21.69423],[-102.9197,21.69188],[-102.916,21.69394]]],[[[-102.92945,21.69582],[-102.93425,21.69414],[-102.92826,21.69036],[-102.93027,21.69428],[-102.92945,21.69582]]],[[[-102.93215,21.69061],[-102.93584,21.68717],[-102.93899,21.6879],[-102.93991,21.69009],[-102.94313,21.68901],[-102.94474,21.68935],[-102.94301,21.68638],[-102.94033,21.68565],[-102.93998,21.68225],[-102.93819,21.68222],[-102.93863,21.68656],[-102.93592,21.68588],[-102.92934,21.68856],[-102.93215,21.69061]]],[[[-102.93137,21.6827],[-102.93444,21.68332],[-102.93661,21.67906],[-102.93137,21.6827]]],[[[-102.96558,21.69544],[-102.96741,21.6967],[-102.97228,21.69586],[-102.97257,21.69092],[-102.96743,21.69041],[-102.96797,21.68819],[-102.96406,21.68556],[-102.95974,21.68534],[-102.95819,21.68016],[-102.9609,21.68362],[-102.9648,21.68471],[-102.96534,21.68334],[-102.96144,21.68077],[-102.96331,21.67755],[-102.96626,21.67713],[-102.96567,21.67425],[-102.96822,21.67197],[-102.96747,21.66504],[-102.96388,21.67024],[-102.96356,21.67596],[-102.96156,21.67487],[-102.95828,21.67718],[-102.95268,21.67579],[-102.94662,21.6732],[-102.94436,21.67336],[-102.93757,21.67869],[-102.94055,21.68102],[-102.94416,21.68668],[-102.94416,21.68022],[-102.9455,21.68404],[-102.95421,21.68468],[-102.94876,21.68695],[-102.95622,21.69022],[-102.96054,21.69031],[-102.96219,21.69406],[-102.96558,21.69544]]],[[[-102.94662,21.69427],[-102.94773,21.69067],[-102.95262,21.69051],[-102.94718,21.68887],[-102.94568,21.68521],[-102.94482,21.69159],[-102.94662,21.69427]]],[[[-102.95545,21.67564],[-102.95833,21.67586],[-102.96239,21.67257],[-102.96654,21.6645],[-102.95802,21.66117],[-102.95783,21.65653],[-102.95486,21.66102],[-102.95829,21.66345],[-102.95508,21.66784],[-102.95614,21.67223],[-102.95343,21.66996],[-102.95378,21.66786],[-102.94743,21.6687],[-102.94903,21.66562],[-102.94428,21.66574],[-102.93972,21.66712],[-102.94608,21.67027],[-102.94496,21.67155],[-102.95545,21.67564]]],[[[-102.91171,21.67616],[-102.91473,21.67714],[-102.91804,21.67392],[-102.91491,21.67242],[-102.91372,21.66955],[-102.9169,21.66554],[-102.91729,21.6632],[-102.91279,21.65983],[-102.91222,21.658],[-102.91474,21.65377],[-102.91151,21.65356],[-102.90632,21.65648],[-102.90489,21.65499],[-102.90238,21.65948],[-102.9041,21.66561],[-102.90144,21.66373],[-102.90178,21.6662],[-102.90716,21.6675],[-102.91013,21.67522],[-102.91171,21.67616]],[[-102.91075,21.66473],[-102.91,21.66382],[-102.9056,21.66302],[-102.90667,21.65806],[-102.91344,21.66123],[-102.91227,21.66223],[-102.91273,21.66294],[-102.91383,21.669],[-102.91047,21.67055],[-102.90935,21.6666],[-102.91075,21.66473]]],[[[-102.88511,21.67844],[-102.87982,21.68087],[-102.88187,21.68333],[-102.88892,21.68508],[-102.8895,21.68352],[-102.88557,21.6813],[-102.88511,21.67844]]],[[[-102.88475,21.67443],[-102.88136,21.67626],[-102.88454,21.6773],[-102.88475,21.67443]]],[[[-102.85723,21.68588],[-102.85686,21.68616],[-102.85635,21.68687],[-102.85639,21.68874],[-102.8589,21.69085],[-102.85966,21.69006],[-102.85986,21.69012],[-102.86001,21.69016],[-102.86123,21.68785],[-102.86386,21.68814],[-102.86373,21.69058],[-102.86758,21.69838],[-102.87258,21.69838],[-102.87396,21.69578],[-102.86854,21.69271],[-102.86553,21.68916],[-102.8661,21.68728],[-102.86271,21.68161],[-102.86211,21.68647],[-102.85972,21.68398],[-102.85763,21.68557],[-102.85723,21.68588]]],[[[-102.88349,21.704],[-102.88346,21.6992],[-102.88186,21.70137],[-102.88349,21.704]]],[[[-102.86307,21.69965],[-102.8651,21.6976],[-102.86131,21.69509],[-102.85918,21.69538],[-102.85919,21.6988],[-102.86307,21.69965]]],[[[-102.85537,21.69882],[-102.85766,21.69943],[-102.85765,21.6957],[-102.85537,21.69882]]],[[[-102.88653,21.70149],[-102.88434,21.70415],[-102.88735,21.70533],[-102.88928,21.70152],[-102.88653,21.70149]]],[[[-102.89121,21.66734],[-102.89428,21.67073],[-102.89697,21.66768],[-102.89111,21.66621],[-102.89121,21.66734]]],[[[-102.92986,21.65408],[-102.93352,21.65583],[-102.93923,21.65272],[-102.93862,21.64956],[-102.93693,21.65074],[-102.93351,21.64918],[-102.92986,21.65408]]],[[[-102.94979,21.64847],[-102.94952,21.64496],[-102.94488,21.64791],[-102.94614,21.64957],[-102.94979,21.64847]]],[[[-102.96143,21.64598],[-102.96139,21.64593],[-102.95983,21.64819],[-102.9628,21.65285],[-102.96543,21.65136],[-102.96143,21.64598]]],[[[-102.96289,21.64641],[-102.96596,21.65094],[-102.97083,21.6483],[-102.97136,21.63913],[-102.9701,21.64346],[-102.96888,21.64491],[-102.96289,21.64641]]],[[[-102.96468,21.64481],[-102.96811,21.64462],[-102.96968,21.64341],[-102.96961,21.63904],[-102.97138,21.63543],[-102.96654,21.63882],[-102.96647,21.64285],[-102.96468,21.64481]]],[[[-102.97119,21.63162],[-102.97191,21.63308],[-102.9731,21.62687],[-102.97129,21.62789],[-102.97119,21.63162]]],[[[-102.97348,21.62717],[-102.97424,21.6284],[-102.98197,21.62368],[-102.98195,21.61477],[-102.98029,21.6193],[-102.97717,21.61843],[-102.97583,21.62431],[-102.97348,21.62717]]],[[[-102.98949,21.62102],[-102.99021,21.62144],[-102.99051,21.62001],[-102.9878,21.6145],[-102.99316,21.60968],[-103.00205,21.61085],[-102.99994,21.60911],[-102.99412,21.60822],[-102.98996,21.60492],[-102.98743,21.60616],[-102.98697,21.6132],[-102.98334,21.61411],[-102.98251,21.61594],[-102.98575,21.61578],[-102.98842,21.6187],[-102.98929,21.61883],[-102.99026,21.6204],[-102.98949,21.62102]]],[[[-102.98608,21.62327],[-102.9888,21.62455],[-102.98892,21.62201],[-102.98678,21.62035],[-102.98608,21.62327]]],[[[-103.01381,21.63612],[-103.01602,21.63549],[-103.01469,21.62927],[-103.01297,21.63039],[-103.00938,21.62477],[-103.011,21.6209],[-103.0073,21.61823],[-103.003,21.61738],[-103.00134,21.62035],[-102.99861,21.62126],[-103.00062,21.6232],[-103.00764,21.62434],[-103.00794,21.62745],[-103.00595,21.62954],[-103.01095,21.63188],[-103.00966,21.63287],[-103.01381,21.63612]]],[[[-102.99878,21.63997],[-103.00024,21.63783],[-102.99823,21.63533],[-102.99676,21.63891],[-102.99878,21.63997]]],[[[-103.0123,21.64918],[-103.01985,21.64884],[-103.01973,21.64552],[-103.01685,21.64608],[-103.017,21.64116],[-103.01362,21.64124],[-103.01301,21.63749],[-103.01073,21.63675],[-103.01087,21.64018],[-103.00659,21.63873],[-103.00884,21.64116],[-103.00947,21.64469],[-103.0123,21.64918]]],[[[-102.98807,21.65083],[-102.98939,21.64592],[-102.98638,21.64669],[-102.98807,21.65083]]],[[[-102.98322,21.65118],[-102.98488,21.65318],[-102.98688,21.65064],[-102.98446,21.64856],[-102.98014,21.65096],[-102.98322,21.65118]]],[[[-102.97243,21.64917],[-102.97338,21.65159],[-102.97459,21.64874],[-102.97243,21.64917]]],[[[-102.97021,21.65431],[-102.97231,21.65215],[-102.97152,21.64834],[-102.96649,21.65098],[-102.97021,21.65431]]],[[[-102.96597,21.65719],[-102.96751,21.65824],[-102.96902,21.65402],[-102.9669,21.65261],[-102.96542,21.65519],[-102.96374,21.65677],[-102.96597,21.65719]]],[[[-102.97154,21.66975],[-102.9749,21.6667],[-102.96871,21.66374],[-102.96855,21.6617],[-102.96381,21.66056],[-102.9671,21.65879],[-102.96323,21.65711],[-102.95972,21.65903],[-102.96046,21.66119],[-102.96884,21.66532],[-102.97154,21.66975]]],[[[-103.01169,21.68511],[-103.02214,21.68094],[-103.01599,21.6804],[-103.00815,21.67682],[-103.00749,21.67927],[-103.00358,21.67653],[-102.99673,21.66948],[-102.99721,21.66764],[-102.9906,21.66441],[-102.98892,21.65918],[-102.99047,21.65662],[-102.98726,21.65816],[-102.98926,21.66311],[-102.98668,21.66552],[-102.98509,21.6622],[-102.98812,21.66198],[-102.98644,21.65972],[-102.98225,21.6647],[-102.98599,21.66594],[-102.98282,21.66824],[-102.98379,21.67046],[-102.98832,21.67063],[-102.98761,21.67188],[-102.98934,21.67812],[-102.99667,21.67746],[-102.99597,21.68024],[-102.99947,21.6769],[-103.00268,21.67846],[-103.00022,21.68281],[-103.00827,21.67972],[-103.01179,21.68194],[-103.01169,21.68511]]],[[[-103.00499,21.65658],[-103.00417,21.65443],[-103.00155,21.6552],[-103.00499,21.65658]]],[[[-103.01173,21.65274],[-103.01556,21.6555],[-103.01512,21.65187],[-103.01173,21.65274]]],[[[-103.02724,21.65749],[-103.02876,21.65264],[-103.02588,21.65629],[-103.02153,21.65167],[-103.02285,21.65558],[-103.02724,21.65749]]],[[[-103.02563,21.66203],[-103.02754,21.6584],[-103.02548,21.65818],[-103.02343,21.66149],[-103.02563,21.66203]]],[[[-103.04278,21.64944],[-103.04861,21.64477],[-103.04566,21.64349],[-103.04628,21.64054],[-103.04315,21.64192],[-103.04333,21.64471],[-103.04055,21.64343],[-103.03701,21.63769],[-103.03328,21.63711],[-103.03816,21.64388],[-103.04056,21.64854],[-103.04278,21.64944]]],[[[-103.00566,21.66921],[-103.00603,21.66713],[-103.00203,21.66717],[-103.00027,21.669],[-103.00566,21.66921]]],[[[-103.06549,21.68312],[-103.06765,21.68149],[-103.06432,21.68065],[-103.06549,21.68312]]],[[[-103.06966,21.68363],[-103.07159,21.68229],[-103.06862,21.68108],[-103.06966,21.68363]]],[[[-103.0193,21.68739],[-103.02197,21.6902],[-103.02427,21.68728],[-103.02247,21.68464],[-103.0193,21.68739]]],[[[-103.03677,21.68893],[-103.0395,21.68758],[-103.03407,21.68546],[-103.03677,21.68893]]],[[[-103.044,21.69628],[-103.04258,21.69415],[-103.04592,21.69299],[-103.0419,21.69031],[-103.03761,21.68904],[-103.0365,21.69124],[-103.044,21.69628]]],[[[-103.01973,21.69864],[-103.02345,21.70171],[-103.02761,21.69849],[-103.02733,21.69518],[-103.02286,21.69129],[-103.02104,21.69176],[-103.01973,21.69864]]],[[[-102.94087,21.66112],[-102.94428,21.66164],[-102.95012,21.65877],[-102.94974,21.66064],[-102.95304,21.65973],[-102.95277,21.65614],[-102.9556,21.65363],[-102.9541,21.65292],[-102.95125,21.65542],[-102.94767,21.65416],[-102.94214,21.65783],[-102.94087,21.66112]]],[[[-102.92106,21.65906],[-102.9196,21.6589],[-102.9204,21.66095],[-102.92368,21.66144],[-102.92106,21.65906]]],[[[-102.94915,21.66471],[-102.95009,21.66283],[-102.95379,21.66459],[-102.95458,21.66272],[-102.9486,21.66141],[-102.94915,21.66471]]],[[[-102.96177,21.65334],[-102.95976,21.64905],[-102.95592,21.6521],[-102.96177,21.65334]]],[[[-102.96202,21.65368],[-102.96534,21.65467],[-102.96558,21.65159],[-102.96202,21.65368]]],[[[-102.9811,21.64702],[-102.98274,21.64847],[-102.9855,21.64678],[-102.98358,21.64457],[-102.9811,21.64702]]],[[[-103.00049,21.64056],[-103.00297,21.64213],[-103.00169,21.63872],[-103.00049,21.64056]]],[[[-102.97421,21.63491],[-102.97514,21.63371],[-102.97329,21.62998],[-102.97228,21.63414],[-102.97421,21.63491]]],[[[-103.00171,21.63245],[-103.00418,21.63013],[-103.00346,21.62775],[-102.99779,21.62465],[-103.00127,21.62859],[-102.99705,21.62795],[-102.99528,21.63301],[-103.00171,21.63245]]],[[[-103.03922,21.62245],[-103.04275,21.62154],[-103.03596,21.61978],[-103.03328,21.61661],[-103.03276,21.62043],[-103.03665,21.62256],[-103.03922,21.62245]]],[[[-103.04389,21.6286],[-103.04507,21.62905],[-103.04819,21.62413],[-103.04547,21.62256],[-103.04169,21.62493],[-103.04164,21.62664],[-103.03778,21.62785],[-103.04389,21.6286]]],[[[-103.0415,21.63351],[-103.04574,21.6335],[-103.04626,21.63018],[-103.04239,21.62905],[-103.03574,21.62953],[-103.03373,21.63329],[-103.0415,21.63351]]],[[[-103.0203,21.61197],[-103.0209,21.61519],[-103.02364,21.61677],[-103.02552,21.61232],[-103.02421,21.60797],[-103.02232,21.60888],[-103.01783,21.6071],[-103.0203,21.61197]]],[[[-103.00012,21.60837],[-103.00027,21.60401],[-102.99834,21.60555],[-102.99594,21.60363],[-102.99089,21.60459],[-102.99407,21.60734],[-103.00012,21.60837]]],[[[-103.00831,21.60322],[-103.01252,21.60379],[-103.01395,21.6004],[-103.01233,21.59805],[-103.01541,21.59798],[-103.01823,21.60262],[-103.01887,21.60015],[-103.01456,21.59682],[-103.01382,21.59442],[-103.01024,21.59852],[-103.00893,21.59592],[-103.00714,21.59801],[-103.00831,21.60322]]],[[[-103.03415,21.60757],[-103.03736,21.6077],[-103.03908,21.60443],[-103.04183,21.60581],[-103.04029,21.6014],[-103.03629,21.5968],[-103.03682,21.59885],[-103.03449,21.60069],[-103.03309,21.60608],[-103.03415,21.60757]]],[[[-103.04604,21.60456],[-103.0493,21.60404],[-103.04751,21.60164],[-103.04274,21.60326],[-103.04604,21.60456]]],[[[-103.05427,21.61661],[-103.05628,21.61458],[-103.05287,21.61137],[-103.05154,21.60654],[-103.04232,21.60499],[-103.04452,21.60738],[-103.04184,21.60949],[-103.04552,21.60983],[-103.04775,21.6135],[-103.05427,21.61661]]],[[[-103.01444,21.59402],[-103.0163,21.59047],[-103.01249,21.58877],[-103.01185,21.59367],[-103.01444,21.59402]]],[[[-102.98452,21.6128],[-102.9869,21.60633],[-102.9845,21.60992],[-102.98452,21.6128]]],[[[-102.9743,21.68591],[-102.97793,21.68537],[-102.97569,21.68387],[-102.97766,21.68144],[-102.97307,21.67967],[-102.97292,21.68676],[-102.9743,21.68591]]],[[[-102.93559,21.69578],[-102.93321,21.69895],[-102.93808,21.69515],[-102.93559,21.69578]]],[[[-102.91379,21.70819],[-102.9103,21.71089],[-102.91408,21.71032],[-102.91762,21.70241],[-102.91374,21.70578],[-102.91379,21.70819]]],[[[-103.06154,21.56355],[-103.06419,21.56286],[-103.05869,21.55998],[-103.05658,21.56117],[-103.05897,21.56352],[-103.06154,21.56355]]],[[[-103.01814,21.55834],[-103.01773,21.56037],[-103.02074,21.55958],[-103.01814,21.55834]]],[[[-103.03224,21.5586],[-103.03417,21.55811],[-103.03435,21.5505],[-103.03184,21.54879],[-103.02755,21.55256],[-103.03068,21.55819],[-103.03224,21.5586]]],[[[-103.0156,21.55576],[-103.01934,21.55531],[-103.01467,21.55239],[-103.0156,21.55576]]],[[[-103.03753,21.55493],[-103.04059,21.55509],[-103.04169,21.55093],[-103.04675,21.5499],[-103.04221,21.54667],[-103.03944,21.54931],[-103.03524,21.55047],[-103.035,21.55436],[-103.03753,21.55493]]],[[[-103.02534,21.54512],[-103.03277,21.54672],[-103.02964,21.54077],[-103.02534,21.54512]]],[[[-103.05271,21.55811],[-103.05567,21.559],[-103.05425,21.55494],[-103.05707,21.55296],[-103.05602,21.55073],[-103.06135,21.54887],[-103.066,21.54441],[-103.06682,21.53651],[-103.06418,21.53353],[-103.06586,21.53059],[-103.06473,21.52451],[-103.06181,21.52892],[-103.06268,21.53332],[-103.05918,21.54243],[-103.05873,21.54044],[-103.05281,21.54051],[-103.05059,21.54329],[-103.05106,21.54552],[-103.05747,21.54652],[-103.05422,21.55025],[-103.05046,21.55203],[-103.05271,21.55811]]],[[[-103.03732,21.54612],[-103.03564,21.54115],[-103.03561,21.54562],[-103.03732,21.54612]]],[[[-103.04137,21.53275],[-103.03962,21.53946],[-103.04162,21.53902],[-103.04152,21.53611],[-103.04341,21.5306],[-103.0483,21.52911],[-103.0495,21.52542],[-103.04344,21.52908],[-103.04137,21.53275]]],[[[-103.02584,21.52919],[-103.02287,21.53208],[-103.02391,21.53365],[-103.02733,21.53288],[-103.02584,21.52919]]],[[[-103.05335,21.53438],[-103.05389,21.53146],[-103.06,21.5347],[-103.05783,21.52872],[-103.05583,21.52915],[-103.05084,21.53322],[-103.05335,21.53438]]],[[[-102.87253,21.71199],[-102.87131,21.71552],[-102.87396,21.71913],[-102.87546,21.71438],[-102.87253,21.71199]]],[[[-102.88291,21.71291],[-102.88104,21.71554],[-102.8851,21.71307],[-102.88291,21.71291]]],[[[-102.82057,21.73695],[-102.82036,21.73876],[-102.82173,21.73993],[-102.82243,21.73857],[-102.82057,21.73695]]],[[[-102.94852,21.81568],[-102.94785,21.81993],[-102.95643,21.80829],[-102.95325,21.80663],[-102.94891,21.81057],[-102.94762,21.81367],[-102.9453,21.81298],[-102.94336,21.81535],[-102.94852,21.81568]]],[[[-102.99714,21.83606],[-102.99379,21.83515],[-102.99562,21.83207],[-102.99922,21.83236],[-103.00205,21.82992],[-102.99863,21.82869],[-102.99449,21.82967],[-102.99265,21.83488],[-102.99319,21.83725],[-102.99714,21.83606]]],[[[-103.00655,21.83473],[-103.00208,21.83475],[-103.00137,21.83673],[-103.00445,21.83711],[-103.00655,21.83473]]],[[[-103.01128,21.83629],[-103.00738,21.83479],[-103.00582,21.83729],[-103.01128,21.83629]]],[[[-102.99353,21.8299],[-102.99251,21.83014],[-102.99131,21.82286],[-102.99276,21.81982],[-102.99621,21.81931],[-103,21.82182],[-102.99917,21.82515],[-103.00625,21.82389],[-103.00851,21.82624],[-103.01294,21.82828],[-103.00841,21.82202],[-103.00301,21.81848],[-102.99198,21.81553],[-102.99377,21.81153],[-102.99044,21.81073],[-102.99257,21.80947],[-102.9895,21.80498],[-102.98891,21.80892],[-102.98479,21.80818],[-102.98229,21.81053],[-102.98078,21.80664],[-102.97804,21.80883],[-102.98069,21.8034],[-102.97523,21.80408],[-102.97785,21.80592],[-102.97681,21.80894],[-102.97391,21.81149],[-102.97774,21.8102],[-102.97948,21.81193],[-102.97901,21.81504],[-102.98144,21.82178],[-102.98384,21.82033],[-102.98936,21.82236],[-102.98829,21.82643],[-102.9908,21.82944],[-102.98665,21.8327],[-102.98313,21.83386],[-102.98371,21.8356],[-102.98728,21.83451],[-102.98844,21.83647],[-102.99128,21.8363],[-102.99353,21.8299]]],[[[-102.92893,21.7594],[-102.93299,21.76266],[-102.93586,21.76851],[-102.9406,21.76689],[-102.94355,21.76123],[-102.94675,21.75843],[-102.95345,21.75709],[-102.95139,21.75455],[-102.96132,21.7556],[-102.96103,21.75745],[-102.96497,21.76079],[-102.96885,21.75696],[-102.96465,21.75707],[-102.96215,21.75382],[-102.95841,21.75294],[-102.95934,21.75063],[-102.94523,21.74528],[-102.94592,21.74366],[-102.95387,21.74824],[-102.95524,21.74666],[-102.96022,21.75045],[-102.96068,21.75244],[-102.96426,21.75305],[-102.96586,21.75101],[-102.96819,21.74422],[-102.96466,21.74077],[-102.95949,21.73919],[-102.95225,21.7349],[-102.95086,21.73541],[-102.95116,21.7395],[-102.94742,21.73869],[-102.94587,21.74214],[-102.94235,21.74455],[-102.9404,21.74252],[-102.93532,21.74242],[-102.93669,21.74435],[-102.93652,21.74864],[-102.93208,21.74288],[-102.93091,21.74398],[-102.9325,21.74746],[-102.93,21.74593],[-102.92787,21.74933],[-102.93616,21.75254],[-102.93171,21.75443],[-102.93513,21.75522],[-102.93694,21.75884],[-102.93443,21.75862],[-102.93357,21.75594],[-102.92951,21.7578],[-102.92683,21.75451],[-102.92429,21.75945],[-102.92893,21.7594]]],[[[-102.91179,21.75475],[-102.91391,21.75338],[-102.91714,21.75412],[-102.91483,21.75928],[-102.91768,21.75577],[-102.9225,21.7574],[-102.92553,21.75146],[-102.92212,21.74948],[-102.91631,21.7516],[-102.9153,21.74621],[-102.91319,21.74531],[-102.91126,21.74949],[-102.90835,21.75202],[-102.90867,21.75444],[-102.91438,21.7522],[-102.91179,21.75475]]],[[[-102.91937,21.74814],[-102.921,21.74877],[-102.92115,21.74435],[-102.92468,21.7457],[-102.92528,21.74189],[-102.91917,21.74274],[-102.91559,21.74449],[-102.91937,21.74814]]],[[[-102.86908,21.74251],[-102.87054,21.7357],[-102.8693,21.73423],[-102.86722,21.74017],[-102.86908,21.74251]]],[[[-102.90714,21.74105],[-102.91233,21.73409],[-102.91347,21.73514],[-102.91757,21.73085],[-102.91426,21.72969],[-102.91516,21.7265],[-102.91075,21.73056],[-102.90832,21.73077],[-102.90325,21.7391],[-102.90714,21.74105]]],[[[-102.94093,21.74241],[-102.94206,21.74278],[-102.94526,21.73739],[-102.93859,21.7371],[-102.93496,21.73573],[-102.93381,21.73233],[-102.93738,21.7299],[-102.93728,21.72353],[-102.93356,21.72008],[-102.93238,21.72476],[-102.92983,21.72861],[-102.92281,21.73229],[-102.91979,21.72855],[-102.91772,21.73037],[-102.92229,21.7323],[-102.92065,21.73356],[-102.92236,21.73838],[-102.92579,21.73948],[-102.92838,21.73796],[-102.93611,21.74095],[-102.93909,21.73931],[-102.94093,21.74241]],[[-102.9281,21.73179],[-102.93041,21.7323],[-102.92662,21.73391],[-102.9254,21.73661],[-102.92223,21.73463],[-102.9281,21.73179]]],[[[-102.87946,21.72645],[-102.87924,21.72434],[-102.87673,21.72618],[-102.87946,21.72645]]],[[[-103.10777,21.53132],[-103.10791,21.5288],[-103.10418,21.52762],[-103.10249,21.52538],[-103.1003,21.51888],[-103.10121,21.51618],[-103.09615,21.50675],[-103.09237,21.50529],[-103.08965,21.50603],[-103.08592,21.50157],[-103.08285,21.50242],[-103.08729,21.50782],[-103.09315,21.50732],[-103.0973,21.51382],[-103.09992,21.52594],[-103.10583,21.52911],[-103.10777,21.53132]]],[[[-103.08629,21.51475],[-103.08716,21.51686],[-103.08931,21.51499],[-103.08629,21.51475]]],[[[-103.07089,21.5153],[-103.07479,21.51569],[-103.07697,21.51149],[-103.08143,21.51089],[-103.0836,21.5126],[-103.08795,21.51346],[-103.09024,21.51064],[-103.08935,21.50907],[-103.08403,21.50611],[-103.08489,21.51156],[-103.08245,21.5091],[-103.08318,21.50672],[-103.08074,21.50586],[-103.07935,21.51056],[-103.07451,21.50889],[-103.07278,21.51394],[-103.07089,21.5153]]],[[[-103.0696,21.50291],[-103.07184,21.50262],[-103.06936,21.49845],[-103.0696,21.50291]]],[[[-103.09325,21.50315],[-103.09903,21.50195],[-103.09715,21.49995],[-103.08941,21.4964],[-103.08854,21.49237],[-103.0865,21.49373],[-103.08411,21.49014],[-103.08332,21.49222],[-103.07938,21.49532],[-103.08052,21.49675],[-103.08491,21.49285],[-103.08576,21.50076],[-103.09171,21.50089],[-103.09325,21.50315]]],[[[-103.08305,21.47902],[-103.08296,21.47579],[-103.08775,21.47499],[-103.08884,21.47057],[-103.08456,21.46865],[-103.07666,21.47123],[-103.07431,21.46958],[-103.07199,21.47183],[-103.06613,21.46907],[-103.06379,21.47048],[-103.06808,21.47297],[-103.06838,21.47462],[-103.07282,21.47274],[-103.07667,21.47293],[-103.07726,21.47489],[-103.08267,21.47704],[-103.08305,21.47902]]],[[[-103.07689,21.46674],[-103.0793,21.46854],[-103.08309,21.46746],[-103.08794,21.46761],[-103.08676,21.46392],[-103.07782,21.46334],[-103.07689,21.46674]]]]},"properties":{"POTENCIAL":"ALTO"}}
]}