{"type":"FeatureCollection", "features": [
{"type":"Feature","geometry":{"type":"MultiPolygon","coordinates":[[[[-102.22535,23.13498],[-102.2344,23.13781],[-102.23722,23.10781],[-102.23431,23.11455],[-102.23194,23.11995],[-102.23194,23.11996],[-102.22583,23.13389],[-102.22535,23.13498]]],[[[-102.23053,22.79343],[-102.21276,22.78142],[-102.1986,22.79018],[-102.22315,22.8164],[-102.24473,22.81984],[-102.23053,22.79343]]],[[[-102.31407,22.81437],[-102.30852,22.7914],[-102.28107,22.78795],[-102.26907,22.82379],[-102.26517,22.85306],[-102.28216,22.85176],[-102.29367,22.81864],[-102.30744,22.81576],[-102.31407,22.81437]]],[[[-102.29142,22.72356],[-102.3043,22.74318],[-102.31474,22.72939],[-102.32012,22.71448],[-102.30081,22.7119],[-102.29142,22.72356]]],[[[-102.31391,22.69609],[-102.31037,22.69036],[-102.30808,22.68526],[-102.28726,22.6836],[-102.30282,22.69026],[-102.28893,22.70525],[-102.29892,22.70962],[-102.31391,22.69609]]],[[[-102.88471,22.06872],[-102.8627,22.08746],[-102.88804,22.08205],[-102.88471,22.06872]]],[[[-102.84175,22.00354],[-102.8373,22.02325],[-102.8229,22.03716],[-102.83,22.05749],[-102.81879,22.08142],[-102.80325,22.08062],[-102.79723,22.10204],[-102.81721,22.10191],[-102.80999,22.13107],[-102.83146,22.1127],[-102.84455,22.11296],[-102.85773,22.08801],[-102.86098,22.05326],[-102.86892,22.03705],[-102.88566,22.00961],[-102.8783,21.98297],[-102.88884,21.98797],[-102.89349,21.95139],[-102.91726,21.90546],[-102.90664,21.89368],[-102.93709,21.85403],[-102.93457,21.82006],[-102.92992,21.81329],[-102.92924,21.81637],[-102.92715,21.82072],[-102.90757,21.85467],[-102.93047,21.86154],[-102.90134,21.87545],[-102.9003,21.8905],[-102.88689,21.88833],[-102.89217,21.90624],[-102.87393,21.91127],[-102.86193,21.94541],[-102.88466,21.94404],[-102.86461,21.96816],[-102.85113,21.99554],[-102.84813,21.99826],[-102.84175,22.00354]],[[-102.84635,22.06616],[-102.84464,22.09855],[-102.83768,22.10136],[-102.82885,22.0769],[-102.84635,22.06616]]],[[[-102.26145,23.14738],[-102.28726,23.14488],[-102.27533,23.14277],[-102.28266,23.10216],[-102.29514,23.07741],[-102.27852,23.07453],[-102.28269,23.09201],[-102.26709,23.11467],[-102.27126,23.12575],[-102.26062,23.14654],[-102.26145,23.14738]]],[[[-102.32639,23.13156],[-102.34345,23.10167],[-102.34186,23.08424],[-102.36018,23.07064],[-102.36014,23.02359],[-102.35991,23.02333],[-102.35697,23.01994],[-102.35519,23.01789],[-102.35431,23.01654],[-102.35419,23.01552],[-102.35386,23.0128],[-102.35362,23.01081],[-102.35556,23.00658],[-102.36687,22.98285],[-102.38996,22.99288],[-102.40998,22.96305],[-102.42041,22.96576],[-102.43988,23.01006],[-102.44747,23.0436],[-102.4413,23.07744],[-102.48543,23.05412],[-102.48693,23.04021],[-102.46923,23.05332],[-102.47431,23.03438],[-102.49082,23.02548],[-102.49381,23.00939],[-102.47846,22.98295],[-102.45126,22.98819],[-102.4401,22.97004],[-102.43408,22.93285],[-102.40966,22.90674],[-102.39634,22.93294],[-102.38872,22.9125],[-102.37802,22.91174],[-102.37219,22.9159],[-102.35805,22.93671],[-102.31658,22.9596],[-102.31307,22.93172],[-102.30601,22.95562],[-102.31107,22.97428],[-102.29787,23.00666],[-102.30849,23.00124],[-102.34845,23.0513],[-102.33155,23.05798],[-102.33306,23.09992],[-102.32306,23.13322],[-102.32639,23.13156]]],[[[-102.39955,23.09478],[-102.39967,23.09409],[-102.39054,23.09431],[-102.37719,23.10408],[-102.39955,23.09478]]],[[[-102.23065,23.10597],[-102.23045,23.10623],[-102.23715,23.10763],[-102.23065,23.10597]]],[[[-102.22724,23.0634],[-102.2272,23.06354],[-102.22732,23.06352],[-102.22724,23.0634]]],[[[-102.40816,22.90301],[-102.40966,22.90341],[-102.41672,22.90114],[-102.41693,22.88009],[-102.43245,22.86891],[-102.42631,22.85679],[-102.42465,22.85512],[-102.41715,22.85096],[-102.40644,22.84606],[-102.41216,22.82598],[-102.39858,22.8356],[-102.40056,22.86615],[-102.39301,22.89759],[-102.40816,22.90301]]],[[[-103.31886,21.89293],[-103.31973,21.89509],[-103.32057,21.89009],[-103.31923,21.88883],[-103.31886,21.89293]]],[[[-103.31399,21.85414],[-103.31113,21.83416],[-103.31017,21.84568],[-103.31111,21.84695],[-103.31119,21.84707],[-103.3115,21.84749],[-103.31399,21.85414]]],[[[-103.28361,21.85444],[-103.29477,21.87299],[-103.30256,21.86219],[-103.28361,21.85444]]],[[[-103.27893,21.82098],[-103.28985,21.82279],[-103.296,21.78931],[-103.28469,21.79918],[-103.27893,21.82098]]],[[[-103.31686,21.61279],[-103.32933,21.60764],[-103.32556,21.58951],[-103.31686,21.61279]]],[[[-102.98125,21.9015],[-102.99333,21.89728],[-102.98236,21.8772],[-102.97121,21.88258],[-102.98125,21.9015]]],[[[-101.46908,22.10773],[-101.4824,22.09716],[-101.4641,22.09605],[-101.46908,22.10773]]],[[[-102.43963,23.07744],[-102.42695,23.0748],[-102.42484,23.05652],[-102.41121,23.05864],[-102.40383,23.08993],[-102.43963,23.07744]]],[[[-103.28726,21.92923],[-103.30898,21.91789],[-103.2821,21.91313],[-103.28143,21.92923],[-103.28726,21.92923]]],[[[-101.82894,24.64243],[-101.81719,24.65816],[-101.8345,24.65379],[-101.82894,24.64243]]],[[[-103.09573,21.4343],[-103.09616,21.43433],[-103.10494,21.4282],[-103.10541,21.42791],[-103.10158,21.42381],[-103.09573,21.4343]]],[[[-103.11907,21.38551],[-103.13489,21.39467],[-103.12656,21.37136],[-103.11907,21.38551]]],[[[-102.84725,21.71985],[-102.8429,21.74456],[-102.86355,21.7481],[-102.85878,21.72766],[-102.84725,21.71985]]],[[[-102.85052,21.6832],[-102.86547,21.70412],[-102.87494,21.69504],[-102.86478,21.68045],[-102.85052,21.6832]]],[[[-103.02479,21.7173],[-103.04536,21.70549],[-103.02785,21.70391],[-103.03767,21.67894],[-103.01155,21.67903],[-103.02698,21.68763],[-103.01459,21.70888],[-103.02479,21.7173]]],[[[-102.93028,21.7078],[-102.92082,21.71625],[-102.97154,21.72312],[-102.9719,21.72311],[-102.97246,21.71807],[-102.97796,21.70127],[-102.99542,21.71519],[-103.00335,21.71738],[-103.01127,21.69733],[-103.00534,21.68521],[-102.98697,21.68788],[-102.97677,21.67154],[-102.96504,21.68123],[-102.97215,21.65249],[-102.96753,21.63281],[-102.94514,21.64737],[-102.93579,21.67317],[-102.92134,21.66477],[-102.94043,21.65225],[-102.90762,21.65301],[-102.89527,21.66734],[-102.91381,21.68294],[-102.91224,21.70081],[-102.92642,21.6832],[-102.94522,21.70068],[-102.93028,21.7078]]],[[[-103.06673,21.52157],[-103.0674,21.52122],[-103.07825,21.53161],[-103.0903,21.52043],[-103.0928,21.52474],[-103.11145,21.53315],[-103.11199,21.53251],[-103.09537,21.50602],[-103.11407,21.49649],[-103.1043,21.4779],[-103.11364,21.46945],[-103.10991,21.44963],[-103.09699,21.48669],[-103.08823,21.46602],[-103.07121,21.47057],[-103.08283,21.48033],[-103.07181,21.51394],[-103.05253,21.5183],[-103.05702,21.52814],[-103.04338,21.54359],[-103.03259,21.52112],[-103.02291,21.55331],[-103.00537,21.57425],[-102.99127,21.57194],[-102.99556,21.59467],[-102.97397,21.62414],[-102.99991,21.61599],[-102.99778,21.65639],[-103.02747,21.66565],[-103.02497,21.63482],[-103.03802,21.63734],[-103.04808,21.6242],[-103.0174,21.60578],[-103.02092,21.56713],[-103.05485,21.55755],[-103.06784,21.54436],[-103.06673,21.52157]]],[[[-102.81976,21.77271],[-102.82119,21.77325],[-102.83058,21.75809],[-102.81643,21.74717],[-102.80082,21.76003],[-102.80481,21.76213],[-102.80501,21.76233],[-102.8054,21.76262],[-102.80551,21.76276],[-102.80555,21.76281],[-102.80599,21.76397],[-102.81296,21.76502],[-102.81347,21.76529],[-102.81501,21.76557],[-102.81504,21.7659],[-102.81692,21.76648],[-102.81728,21.76858],[-102.81777,21.76901],[-102.81784,21.76925],[-102.81826,21.77031],[-102.81895,21.77069],[-102.81934,21.77171],[-102.81994,21.77199],[-102.81967,21.77259],[-102.81976,21.77271]]],[[[-102.30308,22.87594],[-102.30225,22.87094],[-102.30225,22.87011],[-102.29808,22.86261],[-102.29725,22.86261],[-102.29559,22.86345],[-102.29475,22.86428],[-102.29392,22.86428],[-102.29309,22.86678],[-102.29392,22.87011],[-102.29725,22.87177],[-102.29725,22.8751],[-102.30308,22.87594]]],[[[-102.41965,22.82015],[-102.42215,22.81515],[-102.40883,22.81682],[-102.41299,22.82265],[-102.41965,22.82015]]]]},"properties":{"POTENCIAL":"ALTO"}},
{"type":"Feature","geometry":{"type":"MultiPolygon","coordinates":[[[[-102.03554,22.16262],[-102.03808,22.15956],[-102.03819,22.16],[-102.04522,22.15373],[-102.04432,22.15344],[-102.04297,22.15347],[-102.03092,22.16722],[-102.03554,22.16262]]],[[[-102.25536,22.38856],[-102.25473,22.38731],[-102.25305,22.38901],[-102.25275,22.38856],[-102.2519,22.38787],[-102.24964,22.38714],[-102.2536,22.3749],[-102.25312,22.37464],[-102.2526,22.37454],[-102.25248,22.3745],[-102.23674,22.37401],[-102.23558,22.37354],[-102.22802,22.37456],[-102.2256,22.37325],[-102.22333,22.37134],[-102.21199,22.3727],[-102.21199,22.36641],[-102.19859,22.37203],[-102.21289,22.38504],[-102.22393,22.37594],[-102.23813,22.38634],[-102.24436,22.39727],[-102.22941,22.4223],[-102.24678,22.43121],[-102.25096,22.47243],[-102.24687,22.49759],[-102.23686,22.50915],[-102.24515,22.51964],[-102.24745,22.55761],[-102.26789,22.57428],[-102.26702,22.58825],[-102.28829,22.57993],[-102.29943,22.55729],[-102.28796,22.54151],[-102.31009,22.53581],[-102.28769,22.52822],[-102.30016,22.51853],[-102.29556,22.50591],[-102.3014,22.47466],[-102.29967,22.4666],[-102.29798,22.45802],[-102.29008,22.41992],[-102.28912,22.4194],[-102.28742,22.41615],[-102.28493,22.41684],[-102.28437,22.41627],[-102.28254,22.41563],[-102.28184,22.4138],[-102.27696,22.41368],[-102.27684,22.41338],[-102.27335,22.41391],[-102.27161,22.41255],[-102.27099,22.41206],[-102.27313,22.40888],[-102.2704,22.40791],[-102.26878,22.40748],[-102.26865,22.40739],[-102.2674,22.40657],[-102.2664,22.40449],[-102.26571,22.4042],[-102.26397,22.39911],[-102.26076,22.39868],[-102.25936,22.39381],[-102.25903,22.39353],[-102.25874,22.3933],[-102.25642,22.39248],[-102.25545,22.38913],[-102.25536,22.38856]]],[[[-102.00151,22.23898],[-101.99953,22.22486],[-101.99957,22.23197],[-101.96795,22.23174],[-101.9696,22.26314],[-101.94714,22.27482],[-101.97454,22.3393],[-101.98482,22.35338],[-102.00923,22.35433],[-102.01706,22.36488],[-102.00206,22.37764],[-102.00289,22.41656],[-101.99793,22.43514],[-102.00876,22.45869],[-101.99293,22.47899],[-102.02162,22.47143],[-102.04037,22.45316],[-102.0222,22.45335],[-102.02583,22.43922],[-102.04611,22.43854],[-102.0457,22.42914],[-102.04125,22.42706],[-102.03245,22.41126],[-102.0373,22.38869],[-102.01041,22.41281],[-102.00833,22.38135],[-102.04935,22.38541],[-102.05724,22.3761],[-102.08602,22.40148],[-102.09291,22.39932],[-102.0838,22.36088],[-102.08617,22.33123],[-102.07788,22.32091],[-102.08135,22.29907],[-102.08135,22.29906],[-102.07562,22.30607],[-102.06248,22.30161],[-102.0567,22.29993],[-102.0576,22.29615],[-102.05566,22.29531],[-102.05841,22.29365],[-102.03761,22.299],[-102.0374,22.29907],[-102.03734,22.29909],[-102.03179,22.2889],[-102.03076,22.28893],[-102.02936,22.2693],[-102.02905,22.26906],[-102.02856,22.26922],[-102.02249,22.24164],[-102.00212,22.24136],[-102.00151,22.23898]],[[-101.97835,22.26228],[-102.00213,22.26682],[-101.99355,22.2823],[-101.97502,22.27311],[-101.97835,22.26228]]],[[[-103.18038,22.38803],[-103.15278,22.42672],[-103.16529,22.42915],[-103.18948,22.39027],[-103.18835,22.39],[-103.18038,22.38803]]],[[[-102.01734,22.12693],[-101.99722,22.12242],[-101.98983,22.12137],[-102.02255,22.12866],[-102.01734,22.12693]]],[[[-101.97375,22.11448],[-101.97216,22.11363],[-101.94561,22.15743],[-101.97761,22.11647],[-101.97375,22.11448]]],[[[-102.31623,22.43089],[-102.31576,22.43212],[-102.30805,22.45782],[-102.30806,22.45782],[-102.32014,22.44398],[-102.31623,22.43089]]],[[[-102.21046,22.36246],[-102.21198,22.36261],[-102.21198,22.36247],[-102.21046,22.36246]]],[[[-102.31474,22.72939],[-102.33326,22.72422],[-102.31391,22.69609],[-102.29892,22.70962],[-102.28893,22.70525],[-102.29142,22.72356],[-102.30081,22.7119],[-102.32012,22.71448],[-102.31474,22.72939]]],[[[-102.65997,22.61802],[-102.66566,22.60446],[-102.64735,22.59998],[-102.65736,22.61698],[-102.65772,22.61719],[-102.65873,22.61777],[-102.65882,22.61782],[-102.65997,22.61802]]],[[[-102.68565,22.81428],[-102.69783,22.83721],[-102.7333,22.81793],[-102.7453,22.82346],[-102.74814,22.77933],[-102.75835,22.7739],[-102.76259,22.76648],[-102.7473,22.7564],[-102.7639,22.73951],[-102.76333,22.71679],[-102.74907,22.69443],[-102.74227,22.66898],[-102.76686,22.61699],[-102.78234,22.61874],[-102.78802,22.59743],[-102.78704,22.57673],[-102.80633,22.56996],[-102.80969,22.52987],[-102.76502,22.53682],[-102.75266,22.58124],[-102.74315,22.58433],[-102.75276,22.60972],[-102.7377,22.65548],[-102.71371,22.66797],[-102.67224,22.67659],[-102.65904,22.69992],[-102.67286,22.72428],[-102.64739,22.75419],[-102.66918,22.76839],[-102.67485,22.78431],[-102.66593,22.79493],[-102.68565,22.81428]]],[[[-102.84699,22.40991],[-102.85821,22.40598],[-102.87197,22.42235],[-102.86982,22.38918],[-102.88378,22.36443],[-102.8751,22.3572],[-102.84699,22.40991]]],[[[-102.883,22.34764],[-102.90652,22.35387],[-102.91297,22.32873],[-102.89908,22.319],[-102.93133,22.24604],[-102.92256,22.2348],[-102.90872,22.27285],[-102.86324,22.31028],[-102.86554,22.32478],[-102.88146,22.32626],[-102.883,22.34764]]],[[[-101.8156,22.35256],[-101.82048,22.33016],[-101.838,22.31668],[-101.83749,22.29655],[-101.84106,22.27695],[-101.82931,22.24729],[-101.8205,22.2694],[-101.8264,22.27692],[-101.79643,22.27382],[-101.74879,22.29483],[-101.73649,22.31684],[-101.71343,22.33448],[-101.71804,22.34842],[-101.71231,22.37595],[-101.74122,22.37801],[-101.75397,22.39762],[-101.77621,22.3643],[-101.80281,22.37359],[-101.80602,22.37207],[-101.8156,22.35256]]],[[[-102.05993,22.54531],[-102.03321,22.53472],[-102.0407,22.55791],[-102.02959,22.5779],[-102.05299,22.57273],[-102.05856,22.58777],[-102.06773,22.58352],[-102.06778,22.58249],[-102.06783,22.58113],[-102.06789,22.57962],[-102.0679,22.57932],[-102.06186,22.55856],[-102.08367,22.56233],[-102.07577,22.57868],[-102.0913,22.58047],[-102.10448,22.59834],[-102.12879,22.54433],[-102.13936,22.53985],[-102.14278,22.51992],[-102.12789,22.50341],[-102.10924,22.5267],[-102.10631,22.52625],[-102.09712,22.52483],[-102.09186,22.52396],[-102.08118,22.52359],[-102.08303,22.53906],[-102.08476,22.55462],[-102.08063,22.55289],[-102.05993,22.54531]]],[[[-101.99765,22.54176],[-102.00951,22.54616],[-102.01413,22.51341],[-102.03974,22.50474],[-101.99799,22.5073],[-101.98751,22.49209],[-101.98071,22.50679],[-101.99902,22.52667],[-101.99765,22.54176]]],[[[-101.99901,22.21935],[-101.99952,22.22431],[-101.99941,22.21937],[-102.00009,22.20749],[-101.99901,22.21935]]],[[[-102.4363,23.75937],[-102.45296,23.7627],[-102.44744,23.74299],[-102.4363,23.75937]]],[[[-102.39126,23.74384],[-102.39301,23.77964],[-102.41861,23.75048],[-102.41176,23.71313],[-102.40917,23.73991],[-102.40108,23.74164],[-102.40294,23.71704],[-102.39345,23.71997],[-102.39126,23.74384]]],[[[-101.99833,23.56286],[-102.00715,23.56994],[-102.00703,23.60204],[-101.98126,23.60657],[-101.98725,23.65123],[-102.01359,23.64987],[-102.01604,23.63316],[-102.02878,23.62648],[-102.01343,23.56369],[-101.99833,23.56286]]],[[[-102.10116,23.61025],[-102.10377,23.59743],[-102.121,23.59991],[-102.14813,23.58667],[-102.15766,23.60573],[-102.17231,23.59519],[-102.16089,23.58347],[-102.16448,23.53748],[-102.18111,23.53911],[-102.18224,23.55994],[-102.20107,23.53147],[-102.16695,23.52327],[-102.15113,23.53407],[-102.15362,23.50974],[-102.14571,23.50791],[-102.14036,23.5333],[-102.12729,23.52822],[-102.12795,23.5478],[-102.0987,23.54871],[-102.10034,23.53246],[-102.08294,23.52582],[-102.07688,23.55411],[-102.12114,23.55522],[-102.1171,23.58367],[-102.10346,23.59658],[-102.07377,23.56173],[-102.06955,23.59328],[-102.06037,23.60465],[-102.07228,23.61546],[-102.10116,23.61025]]],[[[-102.47835,23.52707],[-102.49351,23.52487],[-102.49641,23.50491],[-102.50901,23.49952],[-102.49492,23.47735],[-102.47982,23.49998],[-102.47969,23.48684],[-102.45926,23.47305],[-102.45952,23.51562],[-102.47977,23.50419],[-102.47835,23.52707]]],[[[-102.30687,23.28423],[-102.32056,23.287],[-102.32165,23.30313],[-102.34553,23.29537],[-102.30475,23.27227],[-102.30687,23.28423]]],[[[-102.26145,23.14738],[-102.28208,23.15898],[-102.28726,23.14488],[-102.26145,23.14738]]],[[[-102.37719,23.10408],[-102.39174,23.11678],[-102.38661,23.15316],[-102.37582,23.18189],[-102.39427,23.18195],[-102.40878,23.15364],[-102.42588,23.17445],[-102.41042,23.19838],[-102.39597,23.20279],[-102.37492,23.18859],[-102.37425,23.17836],[-102.35395,23.16526],[-102.35568,23.20255],[-102.34517,23.20969],[-102.35525,23.23446],[-102.3699,23.2136],[-102.39166,23.21842],[-102.39125,23.23092],[-102.40736,23.25601],[-102.44086,23.25449],[-102.43372,23.18063],[-102.44388,23.16586],[-102.46059,23.12144],[-102.46287,23.1026],[-102.46005,23.08927],[-102.47417,23.07877],[-102.48543,23.05412],[-102.4413,23.07744],[-102.43963,23.07744],[-102.40383,23.08993],[-102.39967,23.09409],[-102.39955,23.09478],[-102.37719,23.10408]]],[[[-102.39262,22.90044],[-102.39221,22.90039],[-102.37954,22.89619],[-102.36442,22.88388],[-102.36683,22.90302],[-102.3337,22.91635],[-102.34424,22.92873],[-102.33722,22.93878],[-102.31307,22.93172],[-102.31658,22.9596],[-102.35805,22.93671],[-102.37219,22.9159],[-102.37802,22.91174],[-102.38872,22.9125],[-102.39634,22.93294],[-102.40966,22.90674],[-102.40966,22.90341],[-102.40816,22.90301],[-102.39301,22.89759],[-102.39262,22.90044]]],[[[-102.42631,22.85679],[-102.41705,22.8351],[-102.41965,22.82015],[-102.41299,22.82265],[-102.41216,22.82598],[-102.40644,22.84606],[-102.41715,22.85096],[-102.42465,22.85512],[-102.42631,22.85679]]],[[[-103.54911,22.78271],[-103.53227,22.81639],[-103.54581,22.81226],[-103.55083,22.79171],[-103.57142,22.76522],[-103.58418,22.71513],[-103.60326,22.68986],[-103.58804,22.69311],[-103.57886,22.7242],[-103.56012,22.74934],[-103.55913,22.77146],[-103.52398,22.77062],[-103.50281,22.78137],[-103.54911,22.78271]]],[[[-103.85557,22.57438],[-103.84013,22.57119],[-103.8302,22.58643],[-103.83287,22.58573],[-103.83286,22.58599],[-103.83877,22.58193],[-103.83993,22.58171],[-103.84763,22.57886],[-103.84766,22.57919],[-103.85557,22.57438]]],[[[-103.15282,22.47089],[-103.15944,22.49239],[-103.16442,22.47887],[-103.15282,22.47089]]],[[[-103.06144,22.52128],[-103.05879,22.50905],[-103.08056,22.48217],[-103.08291,22.43433],[-103.06369,22.43338],[-103.06772,22.47455],[-103.03882,22.51892],[-103.03859,22.52111],[-103.03787,22.52774],[-103.02236,22.55677],[-103.01385,22.58724],[-102.99293,22.61466],[-102.96405,22.63034],[-102.94927,22.63162],[-102.96044,22.6042],[-102.94509,22.59164],[-102.92931,22.60087],[-102.94795,22.61153],[-102.94124,22.61833],[-102.91881,22.60823],[-102.93247,22.65541],[-102.9135,22.64991],[-102.86968,22.65903],[-102.87675,22.68378],[-102.89876,22.70228],[-102.92708,22.70727],[-102.93546,22.71666],[-102.93144,22.75188],[-102.93879,22.76098],[-102.92968,22.79079],[-102.94995,22.80576],[-102.97155,22.71531],[-102.9871,22.70067],[-102.98799,22.67363],[-102.97585,22.66361],[-102.96629,22.65739],[-102.96967,22.6532],[-102.97227,22.64369],[-102.97802,22.64183],[-102.97783,22.63252],[-102.99869,22.63073],[-103.01706,22.65358],[-103.01583,22.62729],[-103.04873,22.6222],[-103.05508,22.59551],[-103.05118,22.58163],[-103.06619,22.57589],[-103.06082,22.55252],[-103.07736,22.56327],[-103.08956,22.55681],[-103.08662,22.54568],[-103.06144,22.52128]],[[-102.94754,22.65945],[-102.94922,22.64115],[-102.96497,22.6375],[-102.96979,22.64042],[-102.96697,22.64979],[-102.96888,22.6524],[-102.94754,22.65945]],[[-103.02797,22.59791],[-103.02998,22.57952],[-103.04781,22.59339],[-103.02797,22.59791]]],[[[-103.19888,22.38074],[-103.19749,22.38226],[-103.19601,22.38341],[-103.19221,22.38711],[-103.19141,22.38772],[-103.19119,22.38808],[-103.19139,22.38783],[-103.19866,22.38206],[-103.19888,22.38074]]],[[[-103.21871,22.2796],[-103.21519,22.30306],[-103.21646,22.30196],[-103.21751,22.30105],[-103.217,22.30049],[-103.21897,22.29833],[-103.22018,22.29201],[-103.22006,22.29195],[-103.2195,22.29092],[-103.21847,22.28998],[-103.22183,22.28036],[-103.21871,22.2796]]],[[[-103.43576,23.98634],[-103.43686,24.00013],[-103.3829,24.00647],[-103.39635,24.01257],[-103.43658,24.01289],[-103.4607,23.99741],[-103.45092,23.98376],[-103.43576,23.98634]]],[[[-103.3804,23.95068],[-103.37643,23.95948],[-103.41218,23.96536],[-103.41012,23.95457],[-103.3804,23.95068]]],[[[-103.56203,23.55537],[-103.58083,23.5591],[-103.58881,23.54448],[-103.60537,23.53908],[-103.61319,23.51945],[-103.66081,23.51674],[-103.68255,23.53213],[-103.70427,23.53328],[-103.68435,23.51755],[-103.66329,23.51249],[-103.66158,23.46581],[-103.65489,23.47004],[-103.65138,23.50485],[-103.6204,23.50331],[-103.60243,23.48916],[-103.6029,23.51911],[-103.56203,23.55537]]],[[[-103.13968,23.69536],[-103.16284,23.69556],[-103.17201,23.69059],[-103.1841,23.67881],[-103.17561,23.6543],[-103.20016,23.64547],[-103.21356,23.61973],[-103.17402,23.61116],[-103.16039,23.62369],[-103.16871,23.63164],[-103.19411,23.61575],[-103.18948,23.64077],[-103.15967,23.64169],[-103.13948,23.65063],[-103.13968,23.69536]]],[[[-102.99531,23.47845],[-102.96669,23.45712],[-102.96063,23.46765],[-102.96091,23.468],[-102.96265,23.46855],[-102.9875,23.48176],[-103.00795,23.50661],[-103.01463,23.53058],[-103.03848,23.54873],[-103.01712,23.50921],[-103.01627,23.495],[-102.998,23.49097],[-102.99531,23.47845]]],[[[-103.2922,23.99598],[-103.3049,24.03622],[-103.34891,24.03898],[-103.35344,24.02985],[-103.32351,24.02373],[-103.3261,24.01194],[-103.30467,24.01315],[-103.3144,23.99113],[-103.29342,23.99324],[-103.2922,23.99598]]],[[[-102.97092,23.88512],[-102.98792,23.8888],[-102.9702,23.92401],[-102.91983,23.94182],[-102.94047,23.95047],[-102.97794,23.93134],[-102.99738,23.88116],[-103.00545,23.87465],[-103.0054,23.85636],[-103.02205,23.8555],[-103.05192,23.8281],[-103.06902,23.82644],[-103.09937,23.84688],[-103.09942,23.85969],[-103.14029,23.86623],[-103.14026,23.83649],[-103.17693,23.82358],[-103.16082,23.81736],[-103.12049,23.83887],[-103.10548,23.84054],[-103.06751,23.81723],[-103.09334,23.78311],[-103.10496,23.79058],[-103.10034,23.76074],[-103.11029,23.75627],[-103.11363,23.73155],[-103.08452,23.75886],[-103.08622,23.77468],[-103.06662,23.80429],[-103.03542,23.8282],[-103.02965,23.84221],[-103.0071,23.82885],[-103.01123,23.84508],[-102.99565,23.84956],[-102.98739,23.86579],[-102.98448,23.86715],[-102.9808,23.86642],[-102.97974,23.86811],[-102.97871,23.87152],[-102.97876,23.87379],[-102.97767,23.87817],[-102.97417,23.88178],[-102.97092,23.88512]],[[-103.11616,23.85357],[-103.12573,23.8393],[-103.1354,23.85149],[-103.11616,23.85357]]],[[[-101.7324,22.24099],[-101.76217,22.24614],[-101.76732,22.23599],[-101.73689,22.23064],[-101.7324,22.24099]]],[[[-101.70345,22.0435],[-101.72373,22.03544],[-101.72196,22.02127],[-101.70577,22.02111],[-101.70345,22.0435]]],[[[-102.62551,23.00459],[-102.64905,23.00957],[-102.64968,23.0211],[-102.67236,23.02207],[-102.68873,22.9992],[-102.69068,22.996],[-102.69098,22.99232],[-102.72112,22.99489],[-102.72339,22.9778],[-102.74877,22.96179],[-102.74169,22.94098],[-102.75007,22.92465],[-102.72229,22.93561],[-102.70861,22.95961],[-102.68453,22.94964],[-102.68715,22.90738],[-102.69337,22.89693],[-102.69473,22.87773],[-102.68027,22.87011],[-102.65513,22.91599],[-102.65458,22.91883],[-102.66149,22.92418],[-102.66187,22.92465],[-102.66228,22.92515],[-102.67314,22.93661],[-102.66863,22.96543],[-102.62943,22.97078],[-102.62595,22.96415],[-102.61984,22.98622],[-102.59493,22.99702],[-102.58067,23.03577],[-102.59076,23.03706],[-102.62551,23.00459]]],[[[-102.30808,22.68526],[-102.29153,22.67138],[-102.28726,22.6836],[-102.30808,22.68526]]],[[[-102.3189,22.61116],[-102.33599,22.59577],[-102.31494,22.5858],[-102.29569,22.59979],[-102.3189,22.61116]]],[[[-102.2519,22.6257],[-102.26263,22.62694],[-102.25212,22.59417],[-102.25352,22.57894],[-102.23525,22.58385],[-102.24428,22.60003],[-102.23192,22.61068],[-102.23826,22.62561],[-102.2519,22.6257]]],[[[-102.21353,22.44553],[-102.19983,22.42548],[-102.19696,22.4424],[-102.20933,22.45007],[-102.21353,22.44553]]],[[[-102.84765,21.40542],[-102.86301,21.40639],[-102.8464,21.38698],[-102.84765,21.40542]]],[[[-102.70314,22.89633],[-102.70025,22.90924],[-102.71565,22.87763],[-102.71568,22.84719],[-102.7001,22.84474],[-102.71028,22.8741],[-102.70314,22.89633]]],[[[-103.41075,22.32581],[-103.44847,22.32595],[-103.48463,22.31794],[-103.48497,22.29565],[-103.47211,22.27227],[-103.45669,22.28954],[-103.42754,22.30597],[-103.41075,22.32581]]],[[[-103.51918,22.21644],[-103.53961,22.21933],[-103.54151,22.20413],[-103.51918,22.21644]]],[[[-103.25788,21.97056],[-103.25803,21.97118],[-103.25936,21.97123],[-103.25788,21.97056]]],[[[-103.3164,21.91341],[-103.32342,21.89099],[-103.32057,21.89009],[-103.31973,21.89509],[-103.31557,21.91007],[-103.31557,21.91341],[-103.3164,21.91341]]],[[[-103.42963,24.35523],[-103.42798,24.36803],[-103.43071,24.35698],[-103.43489,24.35417],[-103.43565,24.35285],[-103.42254,24.32101],[-103.42085,24.32846],[-103.42574,24.34352],[-103.42844,24.35181],[-103.42963,24.35523]]],[[[-103.4375,24.34881],[-103.43759,24.35041],[-103.43777,24.34924],[-103.4375,24.34881]]],[[[-103.43214,24.31057],[-103.44706,24.3007],[-103.43609,24.29187],[-103.43214,24.31057]]],[[[-103.49882,24.29697],[-103.48043,24.28893],[-103.4745,24.30184],[-103.48167,24.31112],[-103.47923,24.31847],[-103.46259,24.31928],[-103.45088,24.33186],[-103.46921,24.32057],[-103.46936,24.32065],[-103.47031,24.32078],[-103.47104,24.32142],[-103.48406,24.31834],[-103.48634,24.31218],[-103.48629,24.31209],[-103.4865,24.31017],[-103.48541,24.30966],[-103.49882,24.29697]]],[[[-103.5663,24.26386],[-103.56809,24.28051],[-103.56866,24.27036],[-103.56744,24.27027],[-103.5663,24.26386]]],[[[-103.37843,24.13202],[-103.3862,24.14074],[-103.40705,24.13605],[-103.40034,24.11283],[-103.45372,24.11283],[-103.45734,24.12355],[-103.49229,24.12948],[-103.49658,24.13959],[-103.5177,24.13022],[-103.5181,24.10394],[-103.53829,24.10064],[-103.53742,24.07286],[-103.51677,24.07286],[-103.50452,24.087],[-103.49654,24.07426],[-103.50597,24.05624],[-103.47843,24.03373],[-103.46567,24.04704],[-103.43963,24.02664],[-103.42582,24.03711],[-103.43837,24.04314],[-103.42923,24.06364],[-103.43737,24.08107],[-103.45953,24.09339],[-103.47772,24.09286],[-103.49167,24.10502],[-103.463,24.10574],[-103.42589,24.08535],[-103.40469,24.05538],[-103.33387,24.06231],[-103.31731,24.04955],[-103.32507,24.08027],[-103.34013,24.09443],[-103.33265,24.10267],[-103.35239,24.10718],[-103.3538,24.11828],[-103.37843,24.13202]]],[[[-102.20351,22.40095],[-102.21912,22.39819],[-102.19817,22.38718],[-102.20351,22.40095]]],[[[-103.14571,21.33306],[-103.14904,21.32973],[-103.14821,21.32973],[-103.14738,21.33056],[-103.14654,21.33139],[-103.14571,21.33306]]],[[[-102.92239,22.91731],[-102.92285,22.91362],[-102.92062,22.90823],[-102.90674,22.90674],[-102.90693,22.92113],[-102.92236,22.91756],[-102.92239,22.91731]]],[[[-103.11832,22.88721],[-103.11611,22.91631],[-103.12663,22.91792],[-103.1266,22.88285],[-103.13751,22.86448],[-103.12266,22.86821],[-103.11832,22.88721]]],[[[-102.9402,22.83481],[-102.95275,22.81582],[-102.91091,22.806],[-102.91342,22.82463],[-102.92664,22.81809],[-102.9402,22.83481]]],[[[-102.30475,22.87927],[-102.30308,22.87594],[-102.29725,22.8751],[-102.29808,22.8826],[-102.30475,22.87927]]],[[[-102.42215,22.81515],[-102.44409,22.79624],[-102.43337,22.79477],[-102.44606,22.77122],[-102.46524,22.76128],[-102.48094,22.76989],[-102.49804,22.76685],[-102.48661,22.75562],[-102.50756,22.73185],[-102.49321,22.73],[-102.45668,22.74677],[-102.43135,22.73116],[-102.42092,22.74253],[-102.42758,22.7663],[-102.42508,22.789],[-102.40288,22.81209],[-102.40883,22.81682],[-102.42215,22.81515]]],[[[-102.53079,22.74895],[-102.55271,22.69284],[-102.54626,22.6886],[-102.52629,22.72868],[-102.53079,22.74895]]],[[[-102.71107,23.0578],[-102.71107,23.05792],[-102.71357,23.05828],[-102.71173,23.05745],[-102.71107,23.05745],[-102.71107,23.0578]]],[[[-102.70906,23.05662],[-102.70774,23.05662],[-102.71075,23.05761],[-102.71107,23.05745],[-102.70906,23.05662]]],[[[-102.83897,22.98192],[-102.85448,23.00724],[-102.87096,22.98515],[-102.83897,22.98192]]],[[[-102.77648,22.96799],[-102.76773,22.97742],[-102.77973,22.99371],[-102.77648,22.96799]]],[[[-102.46639,22.5253],[-102.48497,22.52409],[-102.49324,22.50804],[-102.46618,22.50671],[-102.46639,22.5253]]],[[[-102.98554,23.41979],[-102.99416,23.43752],[-103.00907,23.41846],[-102.98554,23.41979]]],[[[-102.92007,23.16819],[-102.8947,23.1809],[-102.89718,23.19735],[-102.91692,23.19945],[-102.90175,23.21149],[-102.92441,23.20251],[-102.93832,23.1799],[-102.95562,23.18033],[-102.96415,23.15367],[-102.93501,23.1538],[-102.93957,23.17099],[-102.92007,23.16819]]],[[[-102.82891,23.12106],[-102.85719,23.11592],[-102.85494,23.10952],[-102.82891,23.12106]]],[[[-102.92007,23.16819],[-102.91217,23.15022],[-102.92314,23.14437],[-102.93296,23.11859],[-102.9087,23.11278],[-102.90815,23.08978],[-102.91631,23.07365],[-102.90446,23.07046],[-102.887,23.08211],[-102.87689,23.07147],[-102.85418,23.07925],[-102.85401,23.09986],[-102.86881,23.11063],[-102.85987,23.12423],[-102.81419,23.13946],[-102.78634,23.13531],[-102.77511,23.1541],[-102.80825,23.14951],[-102.83026,23.15465],[-102.83055,23.17238],[-102.81549,23.17884],[-102.80591,23.20207],[-102.76804,23.21245],[-102.80559,23.21048],[-102.82116,23.19618],[-102.85391,23.18282],[-102.83468,23.17367],[-102.89985,23.15863],[-102.92007,23.16819]]],[[[-102.9714,23.41137],[-102.96096,23.44745],[-102.97738,23.43058],[-102.98335,23.40907],[-102.99879,23.39173],[-103.02608,23.39018],[-103.02711,23.37351],[-103.04779,23.36762],[-103.05636,23.37516],[-103.06288,23.35144],[-103.03373,23.32089],[-103.05161,23.3133],[-103.07539,23.32514],[-103.09042,23.31514],[-103.09616,23.29709],[-103.07619,23.29284],[-103.0972,23.27518],[-103.08783,23.25383],[-103.12955,23.25103],[-103.12349,23.23844],[-103.09781,23.22504],[-103.10407,23.21576],[-103.18676,23.15515],[-103.16279,23.15548],[-103.17694,23.12756],[-103.17766,23.08034],[-103.16262,23.04068],[-103.14904,23.02664],[-103.13781,23.03628],[-103.16371,23.05371],[-103.15279,23.06197],[-103.16694,23.1104],[-103.16078,23.12778],[-103.14008,23.14192],[-103.12439,23.12615],[-103.10345,23.12199],[-103.09701,23.13615],[-103.07889,23.12419],[-103.07621,23.13452],[-103.09624,23.14867],[-103.0877,23.15815],[-103.0662,23.15162],[-103.07007,23.16337],[-103.05029,23.15946],[-103.05873,23.17615],[-103.05569,23.19279],[-103.02361,23.20379],[-103.01764,23.22691],[-102.99876,23.23943],[-103.02122,23.25315],[-103.0006,23.26099],[-102.9704,23.24689],[-102.95686,23.28887],[-102.96294,23.31138],[-102.9369,23.31155],[-102.92784,23.33012],[-102.90058,23.34159],[-102.89547,23.35791],[-102.87335,23.35708],[-102.85679,23.37213],[-102.88484,23.39805],[-102.92694,23.39418],[-102.94224,23.36589],[-102.97024,23.36072],[-102.9528,23.40171],[-102.91849,23.40585],[-102.91782,23.41286],[-102.95779,23.42043],[-102.96211,23.39425],[-102.98225,23.37594],[-102.9714,23.41137]],[[-103.01124,23.28749],[-103.0201,23.27758],[-103.0362,23.28402],[-103.01572,23.30559],[-103.00268,23.3036],[-103.01124,23.28749]]],[[[-103.10185,22.93727],[-103.10301,22.9702],[-103.11417,22.97064],[-103.11146,22.92467],[-103.10185,22.93727]]],[[[-102.87512,22.93395],[-102.89734,22.92698],[-102.8822,22.91135],[-102.87512,22.93395]]],[[[-102.81615,22.90727],[-102.8031,22.93136],[-102.82305,22.92206],[-102.81615,22.90727]]],[[[-102.69898,21.34416],[-102.69828,21.35289],[-102.70018,21.35453],[-102.69982,21.35372],[-102.6993,21.35364],[-102.70073,21.35042],[-102.69998,21.34976],[-102.70064,21.34732],[-102.70026,21.34696],[-102.70047,21.34588],[-102.70009,21.34569],[-102.69972,21.34451],[-102.69924,21.34441],[-102.69898,21.34416]]]]},"properties":{"POTENCIAL":"MEDIO"}}
]}