{"type":"FeatureCollection", "features": [
{"type":"Feature","geometry":{"type":"MultiPolygon","coordinates":[[[[-102.85735,22.0165],[-102.862,22.01289],[-102.86898,22.00975],[-102.86714,22.00296],[-102.86642,21.99946],[-102.87011,21.99084],[-102.8684,21.98886],[-102.86556,21.99379],[-102.86341,21.99443],[-102.86421,21.9963],[-102.86031,22.00211],[-102.86026,22.00215],[-102.8589,22.00961],[-102.85698,22.01515],[-102.85735,22.0165]]],[[[-102.87701,22.0362],[-102.88057,22.03634],[-102.88015,22.03467],[-102.87701,22.0362]]],[[[-102.87706,22.03486],[-102.87549,22.03463],[-102.87555,22.03536],[-102.87616,22.0359],[-102.87706,22.03486]]],[[[-104.09358,22.6457],[-104.09796,22.64745],[-104.10189,22.65155],[-104.10301,22.65229],[-104.10356,22.65201],[-104.10153,22.65068],[-104.09954,22.64338],[-104.09694,22.64346],[-104.09755,22.64087],[-104.10038,22.64128],[-104.09728,22.63027],[-104.09508,22.63035],[-104.09648,22.6336],[-104.09481,22.63388],[-104.09432,22.63061],[-104.09047,22.62892],[-104.08917,22.62975],[-104.08761,22.63657],[-104.09133,22.63632],[-104.08997,22.63803],[-104.09091,22.64235],[-104.08985,22.64359],[-104.09008,22.65035],[-104.09016,22.6528],[-104.09024,22.65782],[-104.09408,22.65868],[-104.09506,22.65639],[-104.09281,22.65173],[-104.09338,22.65038],[-104.09291,22.64569],[-104.09358,22.6457]]],[[[-104.03328,22.60664],[-104.03139,22.60671],[-104.03268,22.61129],[-104.03328,22.60664]]],[[[-102.88597,22.01179],[-102.8851,22.01249],[-102.8826,22.01415],[-102.88202,22.01982],[-102.88702,22.01407],[-102.88597,22.01179]]],[[[-102.86278,21.99528],[-102.86035,22.00167],[-102.8637,21.9964],[-102.86278,21.99528]]],[[[-102.89316,21.94003],[-102.8934,21.93984],[-102.89007,21.93635],[-102.88835,21.94579],[-102.88919,21.94287],[-102.89316,21.94003]]],[[[-102.89409,21.93944],[-102.8996,21.93627],[-102.89988,21.93413],[-102.89938,21.92719],[-102.89791,21.9237],[-102.89821,21.92002],[-102.8988,21.9161],[-102.89334,21.92052],[-102.89297,21.92255],[-102.89505,21.92254],[-102.894,21.92545],[-102.89623,21.92566],[-102.89798,21.93162],[-102.89621,21.93552],[-102.89515,21.93239],[-102.89279,21.93157],[-102.89248,21.93211],[-102.89197,21.93631],[-102.89547,21.93726],[-102.89409,21.93944]]],[[[-102.90998,21.90321],[-102.90779,21.90129],[-102.90828,21.89761],[-102.90742,21.90106],[-102.90402,21.89965],[-102.90629,21.89432],[-102.9052,21.89345],[-102.90837,21.89111],[-102.90841,21.89092],[-102.90557,21.8927],[-102.90538,21.89029],[-102.90917,21.8842],[-102.90813,21.88421],[-102.90094,21.89417],[-102.90434,21.89569],[-102.90213,21.89881],[-102.90139,21.9024],[-102.90197,21.90671],[-102.90338,21.90641],[-102.90374,21.91096],[-102.90679,21.90658],[-102.90819,21.90867],[-102.90557,21.90861],[-102.90349,21.91173],[-102.90239,21.90686],[-102.90099,21.90747],[-102.89878,21.91754],[-102.89959,21.91778],[-102.90217,21.91449],[-102.90264,21.91657],[-102.90807,21.91494],[-102.90758,21.91174],[-102.91124,21.9113],[-102.90938,21.90669],[-102.90983,21.90408],[-102.90998,21.90321]]],[[[-102.90907,21.89028],[-102.90841,21.89092],[-102.90855,21.89088],[-102.90907,21.89028]]],[[[-102.90922,21.88413],[-102.91257,21.87733],[-102.91019,21.8795],[-102.90922,21.88413]]],[[[-102.90272,21.91691],[-102.90353,21.92028],[-102.90536,21.91842],[-102.90272,21.91691]]],[[[-102.90111,21.90275],[-102.89846,21.90614],[-102.89747,21.91156],[-102.89938,21.91309],[-102.90132,21.90454],[-102.90111,21.90275]]],[[[-102.91605,21.87248],[-102.91225,21.8737],[-102.91317,21.87015],[-102.91045,21.8679],[-102.90822,21.87141],[-102.91129,21.87334],[-102.9105,21.87476],[-102.91462,21.87494],[-102.91605,21.87248]]],[[[-102.91873,21.86184],[-102.91857,21.86141],[-102.91667,21.854],[-102.91571,21.85569],[-102.91571,21.86229],[-102.91903,21.86366],[-102.91873,21.86184]]],[[[-102.92424,21.83823],[-102.92229,21.83278],[-102.92064,21.83494],[-102.92362,21.84078],[-102.92499,21.8393],[-102.92424,21.83823]]],[[[-102.92204,21.8296],[-102.92723,21.82116],[-102.92175,21.82811],[-102.92204,21.8296]]]]},"properties":{"POTENCIAL":"ALTO"}},
{"type":"Feature","geometry":{"type":"MultiPolygon","coordinates":[[[[-102.85314,22.01133],[-102.85581,22.01701],[-102.85575,22.01442],[-102.85314,22.01133]]],[[[-102.85592,22.00099],[-102.85409,22.00721],[-102.8567,22.00353],[-102.85592,22.00099]]],[[[-102.85603,22.01693],[-102.8567,22.01669],[-102.85698,22.01515],[-102.8589,22.00961],[-102.86026,22.00215],[-102.85993,22.00207],[-102.86035,22.00167],[-102.86278,21.99528],[-102.86175,21.99357],[-102.86414,21.9918],[-102.86352,21.98893],[-102.86799,21.98376],[-102.86455,21.98078],[-102.86059,21.98541],[-102.857,21.98495],[-102.85751,21.99136],[-102.85628,21.99638],[-102.85594,22.00088],[-102.85909,22.00196],[-102.85902,22.00514],[-102.85575,22.00787],[-102.85509,22.01316],[-102.85626,22.01424],[-102.85603,22.01693]]],[[[-104.09291,22.64569],[-104.09338,22.65038],[-104.09486,22.64734],[-104.09291,22.64569]]],[[[-104.10189,22.65155],[-104.09796,22.64745],[-104.09358,22.6457],[-104.09737,22.64803],[-104.10014,22.65149],[-104.10189,22.65155]]],[[[-104.03338,22.60651],[-104.03405,22.60572],[-104.03139,22.60671],[-104.03328,22.60664],[-104.03338,22.60651]]],[[[-102.88529,22.01179],[-102.8851,22.01249],[-102.88597,22.01179],[-102.88529,22.01179]]],[[[-102.86341,21.99443],[-102.86556,21.99379],[-102.8684,21.98886],[-102.87011,21.99084],[-102.8724,21.98811],[-102.8759,21.98863],[-102.87796,21.98217],[-102.87345,21.97909],[-102.871,21.98302],[-102.86764,21.98236],[-102.8688,21.98483],[-102.8672,21.98577],[-102.86341,21.99443]]],[[[-102.93366,21.81657],[-102.93703,21.81426],[-102.93693,21.80741],[-102.93175,21.80674],[-102.93137,21.80563],[-102.92633,21.80885],[-102.92701,21.81163],[-102.93179,21.81185],[-102.93222,21.80923],[-102.93422,21.80951],[-102.93151,21.81325],[-102.93077,21.81279],[-102.92985,21.81336],[-102.92977,21.81341],[-102.9287,21.81518],[-102.92872,21.81523],[-102.92937,21.81656],[-102.92961,21.8169],[-102.93323,21.81858],[-102.93366,21.81657]]],[[[-102.87928,21.9751],[-102.88083,21.97634],[-102.8838,21.96947],[-102.88891,21.97104],[-102.89046,21.96857],[-102.88631,21.966],[-102.88887,21.96166],[-102.889,21.95784],[-102.89182,21.95487],[-102.89005,21.9508],[-102.88736,21.95053],[-102.88624,21.95475],[-102.88335,21.95376],[-102.88552,21.95127],[-102.88281,21.94944],[-102.87886,21.95643],[-102.87825,21.95971],[-102.87293,21.96474],[-102.8665,21.96807],[-102.86433,21.97305],[-102.86702,21.97561],[-102.86885,21.97441],[-102.87313,21.97616],[-102.87442,21.97387],[-102.87928,21.9751]]],[[[-102.89248,21.93211],[-102.89279,21.93157],[-102.88585,21.93035],[-102.88426,21.93451],[-102.88889,21.93645],[-102.88538,21.93688],[-102.88344,21.9356],[-102.87879,21.93587],[-102.87959,21.94291],[-102.87735,21.94692],[-102.87953,21.94686],[-102.87984,21.94431],[-102.88423,21.9442],[-102.88352,21.94713],[-102.88835,21.94579],[-102.89007,21.93635],[-102.89248,21.93211]]],[[[-102.89276,21.94092],[-102.89037,21.94466],[-102.88978,21.94499],[-102.88885,21.94551],[-102.88811,21.94943],[-102.89167,21.94639],[-102.89583,21.94486],[-102.89753,21.94032],[-102.9023,21.93684],[-102.90375,21.93418],[-102.90278,21.93007],[-102.9065,21.92791],[-102.90649,21.92509],[-102.91055,21.929],[-102.91146,21.92542],[-102.90896,21.92166],[-102.91072,21.91375],[-102.91501,21.91412],[-102.91098,21.90943],[-102.911,21.90733],[-102.91635,21.90512],[-102.90983,21.90408],[-102.90938,21.90669],[-102.91124,21.9113],[-102.90758,21.91174],[-102.90807,21.91494],[-102.90809,21.91507],[-102.90726,21.91711],[-102.9093,21.91948],[-102.9063,21.91971],[-102.9063,21.91973],[-102.90635,21.92037],[-102.90442,21.92105],[-102.90353,21.92028],[-102.90272,21.91691],[-102.89916,21.91833],[-102.89838,21.91933],[-102.89821,21.92002],[-102.89791,21.9237],[-102.89938,21.92719],[-102.90031,21.9242],[-102.90227,21.92873],[-102.90042,21.93016],[-102.90007,21.93277],[-102.89988,21.93413],[-102.8996,21.93627],[-102.89409,21.93944],[-102.89276,21.94092]]],[[[-102.90828,21.89761],[-102.90779,21.90129],[-102.90998,21.90321],[-102.91212,21.90181],[-102.91177,21.89742],[-102.90828,21.89761]]],[[[-102.90855,21.89088],[-102.90841,21.89092],[-102.90837,21.89111],[-102.90855,21.89088]]],[[[-102.91257,21.87733],[-102.90922,21.88413],[-102.90917,21.8842],[-102.90538,21.89029],[-102.90557,21.8927],[-102.90841,21.89092],[-102.90907,21.89028],[-102.91378,21.88276],[-102.91749,21.88195],[-102.91828,21.87536],[-102.91758,21.87286],[-102.91257,21.87733]]],[[[-102.90139,21.9024],[-102.90213,21.89881],[-102.90434,21.89569],[-102.90094,21.89417],[-102.90011,21.89947],[-102.90139,21.9024]]],[[[-102.90264,21.91657],[-102.90217,21.91449],[-102.89959,21.91778],[-102.90264,21.91657]]],[[[-102.87974,21.91936],[-102.8804,21.92816],[-102.87645,21.92993],[-102.87606,21.93153],[-102.88315,21.92974],[-102.88154,21.92885],[-102.88095,21.92389],[-102.88921,21.92417],[-102.89297,21.92255],[-102.89334,21.92052],[-102.8905,21.92043],[-102.89011,21.92265],[-102.88367,21.92362],[-102.88043,21.92278],[-102.88356,21.91999],[-102.88355,21.9218],[-102.88823,21.92189],[-102.88941,21.91767],[-102.88571,21.91954],[-102.88538,21.91757],[-102.88109,21.91751],[-102.87974,21.91936]]],[[[-102.89464,21.95132],[-102.89872,21.94904],[-102.89882,21.94728],[-102.89324,21.94648],[-102.89309,21.95014],[-102.89464,21.95132]]],[[[-102.89386,21.92954],[-102.89361,21.92617],[-102.88904,21.92551],[-102.88567,21.92765],[-102.89386,21.92954]]],[[[-102.89743,21.91174],[-102.89747,21.91156],[-102.89846,21.90614],[-102.90111,21.90275],[-102.89418,21.90373],[-102.89357,21.90132],[-102.89069,21.90452],[-102.89439,21.90487],[-102.8973,21.9078],[-102.88909,21.9075],[-102.88914,21.90998],[-102.88493,21.9097],[-102.88219,21.91352],[-102.88188,21.91427],[-102.88554,21.91635],[-102.88732,21.91487],[-102.89189,21.91426],[-102.89052,21.91111],[-102.89667,21.91376],[-102.89743,21.91174]]],[[[-102.91939,21.8666],[-102.91784,21.86753],[-102.91753,21.86736],[-102.91661,21.86684],[-102.91045,21.8679],[-102.91317,21.87015],[-102.91806,21.86828],[-102.91952,21.87066],[-102.92154,21.86887],[-102.91939,21.8666]]],[[[-102.9105,21.87476],[-102.91129,21.87334],[-102.90822,21.87141],[-102.90681,21.87338],[-102.9105,21.87476]]],[[[-102.97044,21.87149],[-102.97157,21.87024],[-102.96737,21.85939],[-102.96506,21.86077],[-102.95971,21.85969],[-102.95774,21.86218],[-102.96207,21.86631],[-102.95854,21.8714],[-102.9546,21.87058],[-102.9546,21.87566],[-102.96065,21.87135],[-102.96019,21.873],[-102.96602,21.87414],[-102.96414,21.87143],[-102.96985,21.87011],[-102.97044,21.87149]]],[[[-102.92499,21.8393],[-102.92362,21.84078],[-102.92107,21.84908],[-102.91667,21.854],[-102.91857,21.86141],[-102.92164,21.86122],[-102.92712,21.85385],[-102.92864,21.85362],[-102.93131,21.84867],[-102.92878,21.84636],[-102.92748,21.84223],[-102.92499,21.8393]]],[[[-102.92209,21.8302],[-102.92213,21.83074],[-102.92229,21.83278],[-102.92424,21.83823],[-102.93017,21.8395],[-102.93457,21.8389],[-102.93458,21.8377],[-102.92966,21.8358],[-102.92517,21.83534],[-102.92325,21.8324],[-102.92758,21.83306],[-102.92705,21.8348],[-102.93452,21.83514],[-102.92949,21.83174],[-102.92434,21.83133],[-102.92617,21.82889],[-102.92943,21.82924],[-102.93152,21.82686],[-102.92209,21.8302]]],[[[-102.92723,21.82116],[-102.92204,21.8296],[-102.92638,21.82811],[-102.93072,21.82071],[-102.93052,21.81821],[-102.92723,21.82116]]],[[[-102.93878,21.83693],[-102.93988,21.83749],[-102.94285,21.83414],[-102.94854,21.83211],[-102.94718,21.82955],[-102.94917,21.82872],[-102.95261,21.82404],[-102.95458,21.82319],[-102.95267,21.82111],[-102.94754,21.82197],[-102.94537,21.82574],[-102.9377,21.8355],[-102.93878,21.83693]]],[[[-102.98625,21.86797],[-102.98667,21.86696],[-102.98269,21.86351],[-102.98801,21.86315],[-102.98799,21.86288],[-102.98053,21.86328],[-102.9843,21.8699],[-102.98571,21.87026],[-102.98609,21.86864],[-102.98625,21.86797]]],[[[-103.01632,21.73045],[-103.01584,21.73002],[-103.01527,21.72949],[-103.01471,21.72896],[-103.01331,21.72948],[-103.01328,21.7292],[-103.01325,21.72892],[-103.01312,21.72874],[-103.0127,21.72831],[-103.01264,21.72828],[-103.01206,21.7269],[-103.01208,21.72798],[-103.01209,21.72855],[-103.01212,21.72982],[-103.01245,21.73086],[-103.0129,21.73152],[-103.01323,21.73202],[-103.01802,21.73568],[-103.01632,21.73045]]],[[[-102.94852,21.81568],[-102.94785,21.81993],[-102.95643,21.80829],[-102.95325,21.80663],[-102.94891,21.81057],[-102.94762,21.81367],[-102.9453,21.81298],[-102.94336,21.81535],[-102.94852,21.81568]]],[[[-102.96447,21.74066],[-102.96155,21.74229],[-102.95444,21.74338],[-102.94941,21.74522],[-102.95387,21.74824],[-102.95524,21.74666],[-102.96022,21.75045],[-102.96068,21.75244],[-102.96426,21.75305],[-102.96586,21.75101],[-102.96819,21.74422],[-102.96447,21.74066]]],[[[-102.94698,21.74612],[-102.93837,21.7522],[-102.9298,21.749],[-102.92782,21.75025],[-102.93616,21.75254],[-102.93171,21.75443],[-102.93513,21.75522],[-102.93694,21.75884],[-102.93443,21.75862],[-102.93357,21.75594],[-102.92951,21.7578],[-102.92683,21.75451],[-102.92429,21.75945],[-102.92749,21.75845],[-102.93299,21.76266],[-102.93586,21.76851],[-102.9406,21.76689],[-102.94355,21.76123],[-102.94675,21.75843],[-102.95345,21.75709],[-102.95139,21.75455],[-102.95685,21.75567],[-102.96132,21.7556],[-102.96103,21.75745],[-102.96497,21.76079],[-102.96885,21.75696],[-102.96465,21.75707],[-102.96215,21.75382],[-102.95841,21.75294],[-102.95934,21.75063],[-102.94698,21.74612]]],[[[-102.92385,21.75082],[-102.91951,21.75684],[-102.9225,21.7574],[-102.92553,21.75146],[-102.92385,21.75082]]]]},"properties":{"POTENCIAL":"MEDIO"}}
]}