{"type":"FeatureCollection", "features": [
{"type":"Feature","geometry":{"type":"MultiPolygon","coordinates":[[[[-102.32236,22.73594],[-102.32344,22.74062],[-102.32759,22.73293],[-102.32236,22.73594]]],[[[-102.31587,22.72062],[-102.31388,22.7224],[-102.31547,22.72921],[-102.32824,22.73259],[-102.3317,22.72662],[-102.32307,22.72429],[-102.32558,22.72023],[-102.31784,22.71886],[-102.31678,22.71981],[-102.31587,22.72062]]],[[[-102.29194,22.72116],[-102.2969,22.715],[-102.29094,22.717],[-102.29194,22.72116]]],[[[-102.31229,22.7006],[-102.30888,22.69907],[-102.30604,22.70002],[-102.29773,22.71055],[-102.29296,22.71094],[-102.2885,22.70745],[-102.28863,22.71301],[-102.29779,22.71431],[-102.3014,22.71151],[-102.3091,22.71427],[-102.31863,22.71371],[-102.32126,22.71778],[-102.32611,22.71871],[-102.32574,22.71317],[-102.31719,22.70101],[-102.31229,22.7006]]],[[[-102.32411,22.69692],[-102.32242,22.69767],[-102.31741,22.70049],[-102.32122,22.7059],[-102.3243,22.70372],[-102.32411,22.69692]]],[[[-102.33231,22.71201],[-102.3367,22.71847],[-102.34009,22.71738],[-102.34346,22.71148],[-102.33668,22.70842],[-102.33231,22.71201]]],[[[-102.62527,22.75176],[-102.62356,22.75136],[-102.62591,22.75326],[-102.63384,22.75225],[-102.62664,22.75209],[-102.62527,22.75176]]],[[[-101.7201,22.35956],[-101.7212,22.35546],[-101.71586,22.35524],[-101.7201,22.35956]]],[[[-101.71182,22.34859],[-101.71778,22.3463],[-101.71632,22.33902],[-101.71182,22.34859]]],[[[-101.87123,22.1632],[-101.87094,22.1632],[-101.87094,22.16335],[-101.87123,22.1632]]],[[[-101.87868,22.14978],[-101.8801,22.14821],[-101.87968,22.14624],[-101.87053,22.15008],[-101.87868,22.14978]]],[[[-101.87011,22.16263],[-101.87094,22.1632],[-101.87074,22.16236],[-101.87011,22.16263]]],[[[-103.49907,22.99649],[-103.49705,23.00053],[-103.49639,23.00199],[-103.49755,23.00442],[-103.50305,22.99854],[-103.49907,22.99649]]],[[[-103.49897,22.99135],[-103.49935,22.99595],[-103.50543,22.99758],[-103.50709,22.98774],[-103.49897,22.99135]]],[[[-103.76943,23.88541],[-103.77244,23.88851],[-103.77471,23.88526],[-103.76943,23.88541]]],[[[-103.6373,23.80624],[-103.63655,23.81175],[-103.63961,23.81259],[-103.64236,23.80333],[-103.6373,23.80624]]],[[[-103.64121,23.78487],[-103.64385,23.78504],[-103.64365,23.77478],[-103.64052,23.77785],[-103.64121,23.78487]]],[[[-103.75319,23.73406],[-103.74997,23.74055],[-103.75813,23.74004],[-103.75864,23.73331],[-103.75351,23.72854],[-103.75059,23.73045],[-103.75319,23.73406]]],[[[-103.62583,23.22072],[-103.63308,23.22016],[-103.6309,23.21384],[-103.63493,23.20473],[-103.6294,23.20047],[-103.62607,23.2106],[-103.62109,23.21651],[-103.62583,23.22072]]],[[[-103.62185,23.18188],[-103.62298,23.18504],[-103.62757,23.1845],[-103.62185,23.18188]]],[[[-101.68647,22.30781],[-101.68601,22.31307],[-101.69052,22.31202],[-101.68993,22.30045],[-101.6877,22.30001],[-101.68647,22.30781]]],[[[-101.65858,22.29351],[-101.65571,22.29076],[-101.65872,22.28695],[-101.65572,22.2828],[-101.65249,22.28401],[-101.65468,22.29312],[-101.65858,22.29351]]],[[[-101.67598,22.25063],[-101.68,22.24872],[-101.6789,22.2371],[-101.68192,22.23493],[-101.67955,22.22985],[-101.67309,22.22975],[-101.67598,22.25063]]],[[[-101.73277,22.25001],[-101.74032,22.24015],[-101.73403,22.23435],[-101.73489,22.2327],[-101.72538,22.22681],[-101.71847,22.22777],[-101.71685,22.23256],[-101.71033,22.22845],[-101.7087,22.23244],[-101.70553,22.23116],[-101.69708,22.24203],[-101.70825,22.24502],[-101.71307,22.24958],[-101.72599,22.23971],[-101.73277,22.25001]]],[[[-101.74965,22.22656],[-101.7499,22.22187],[-101.74553,22.21928],[-101.74329,22.22624],[-101.74965,22.22656]]],[[[-101.73597,22.21324],[-101.74414,22.21477],[-101.74359,22.20857],[-101.74663,22.20745],[-101.73781,22.20527],[-101.73597,22.21324]]],[[[-101.50524,22.04946],[-101.49957,22.04722],[-101.5,22.05398],[-101.49567,22.05829],[-101.49227,22.0577],[-101.49104,22.06622],[-101.50858,22.05682],[-101.50408,22.05414],[-101.50524,22.04946]]],[[[-102.62568,22.99293],[-102.62826,22.99301],[-102.62851,22.98517],[-102.62618,22.98384],[-102.6261,22.98385],[-102.62576,22.98404],[-102.6226,22.98623],[-102.62239,22.99323],[-102.62568,22.99293]]],[[[-102.17025,22.68725],[-102.17275,22.68478],[-102.17603,22.68549],[-102.18178,22.6843],[-102.17793,22.68037],[-102.17472,22.68398],[-102.16771,22.68082],[-102.16961,22.68808],[-102.17025,22.68725]]],[[[-102.33736,22.64083],[-102.33569,22.64319],[-102.33521,22.64387],[-102.33472,22.64456],[-102.33477,22.64813],[-102.33726,22.65311],[-102.34687,22.65205],[-102.34705,22.64817],[-102.34099,22.64663],[-102.34056,22.64156],[-102.33736,22.64083]]],[[[-102.73841,22.87819],[-102.74041,22.8783],[-102.74279,22.87843],[-102.74409,22.87846],[-102.74468,22.8751],[-102.73608,22.87481],[-102.73841,22.87819]]],[[[-102.67346,22.86441],[-102.67047,22.86367],[-102.66714,22.87177],[-102.66915,22.87053],[-102.67346,22.86441]]],[[[-102.66902,22.88274],[-102.66918,22.87843],[-102.6593,22.87724],[-102.65903,22.87253],[-102.65615,22.87986],[-102.66556,22.88225],[-102.66902,22.88274]]],[[[-103.85832,23.30424],[-103.85952,23.30208],[-103.85395,23.29542],[-103.84855,23.29474],[-103.85302,23.30369],[-103.85549,23.3046],[-103.85832,23.30424]]],[[[-102.94957,22.82254],[-102.94754,22.82182],[-102.9478,22.82233],[-102.94957,22.82254]]],[[[-103.07077,22.70088],[-103.07077,22.70025],[-103.06911,22.70072],[-103.07077,22.70088]]],[[[-103.06661,22.68804],[-103.06661,22.68776],[-103.06578,22.68859],[-103.06661,22.68825],[-103.06661,22.68804]]],[[[-103.06691,22.68693],[-103.06661,22.68776],[-103.06688,22.68776],[-103.06691,22.68693]]],[[[-102.41129,22.82111],[-102.41172,22.81471],[-102.41505,22.80669],[-102.40871,22.81021],[-102.40741,22.81501],[-102.41105,22.8169],[-102.41129,22.82111]]],[[[-102.16341,22.68889],[-102.1605,22.68689],[-102.15914,22.6798],[-102.16272,22.67355],[-102.15969,22.67606],[-102.15585,22.6737],[-102.15871,22.68784],[-102.16341,22.68889]]],[[[-102.81591,23.03807],[-102.8218,23.04009],[-102.82173,23.03559],[-102.816,23.03501],[-102.81591,23.03807]]],[[[-103.27393,23.36493],[-103.27029,23.36806],[-103.27589,23.36918],[-103.2797,23.36402],[-103.27393,23.36493]]],[[[-103.27258,23.19431],[-103.27432,23.19671],[-103.28403,23.18941],[-103.28546,23.19167],[-103.29034,23.18754],[-103.27627,23.17187],[-103.27296,23.1724],[-103.2629,23.18066],[-103.27421,23.19311],[-103.27258,23.19431]]],[[[-103.2493,23.16748],[-103.24925,23.17187],[-103.2532,23.17322],[-103.25943,23.16834],[-103.24868,23.16558],[-103.2493,23.16748]]],[[[-103.3454,23.1639],[-103.34444,23.16717],[-103.34802,23.17167],[-103.35305,23.16581],[-103.3454,23.1639]]],[[[-103.238,23.17124],[-103.24554,23.17184],[-103.24568,23.16493],[-103.2375,23.16342],[-103.22906,23.16641],[-103.24134,23.16722],[-103.238,23.17124]]],[[[-103.24593,23.16218],[-103.25079,23.16534],[-103.25725,23.16078],[-103.26289,23.16402],[-103.25562,23.15095],[-103.25111,23.15387],[-103.2557,23.15913],[-103.24593,23.16218]]],[[[-103.27838,23.20812],[-103.28341,23.21125],[-103.28637,23.20864],[-103.28036,23.20509],[-103.27838,23.20812]]],[[[-103.33533,23.23259],[-103.34216,23.23662],[-103.34709,23.23636],[-103.35696,23.22815],[-103.34171,23.21537],[-103.3267,23.22638],[-103.33226,23.23078],[-103.33533,23.23259]]],[[[-103.24627,23.13623],[-103.24888,23.13796],[-103.25449,23.13209],[-103.24899,23.13215],[-103.24627,23.13623]]],[[[-103.25767,23.13789],[-103.26233,23.14335],[-103.26462,23.14186],[-103.2615,23.13692],[-103.25767,23.13789]]],[[[-103.23908,23.13917],[-103.24531,23.13903],[-103.24285,23.13664],[-103.23908,23.13917]]],[[[-103.29459,23.28615],[-103.30869,23.28488],[-103.31004,23.27954],[-103.3048,23.27785],[-103.29252,23.27853],[-103.29459,23.28615]]],[[[-103.26699,23.10513],[-103.26685,23.11101],[-103.27066,23.10488],[-103.27016,23.1097],[-103.27947,23.10524],[-103.28466,23.106],[-103.27572,23.10016],[-103.27037,23.10059],[-103.26699,23.10513]]],[[[-103.18357,23.09527],[-103.18401,23.09807],[-103.18969,23.09784],[-103.18734,23.0938],[-103.18357,23.09527]]],[[[-103.8939,23.35489],[-103.89782,23.35597],[-103.89655,23.35087],[-103.8939,23.35489]]],[[[-103.95008,23.4202],[-103.94493,23.42259],[-103.93982,23.41897],[-103.93825,23.41858],[-103.93403,23.42174],[-103.93238,23.41837],[-103.92722,23.42009],[-103.93113,23.41295],[-103.92944,23.40931],[-103.92145,23.40729],[-103.92322,23.40153],[-103.92092,23.39381],[-103.91586,23.39473],[-103.91656,23.39108],[-103.90886,23.39471],[-103.9173,23.38845],[-103.91571,23.38225],[-103.91203,23.38196],[-103.91045,23.37237],[-103.90638,23.36915],[-103.9012,23.36895],[-103.89932,23.3726],[-103.89334,23.37005],[-103.88842,23.37222],[-103.88458,23.366],[-103.88581,23.36018],[-103.88007,23.36104],[-103.87685,23.35685],[-103.87363,23.36932],[-103.87935,23.36952],[-103.88559,23.38165],[-103.89309,23.38558],[-103.89556,23.39347],[-103.89687,23.39019],[-103.90396,23.38933],[-103.9023,23.39906],[-103.90839,23.40225],[-103.90633,23.40381],[-103.89649,23.39999],[-103.90115,23.40335],[-103.90627,23.41192],[-103.90965,23.42187],[-103.91531,23.4311],[-103.91503,23.4341],[-103.92945,23.43729],[-103.93319,23.43284],[-103.93013,23.44383],[-103.93607,23.43821],[-103.93998,23.44464],[-103.94634,23.43864],[-103.95382,23.43639],[-103.96144,23.43639],[-103.95584,23.43381],[-103.95503,23.42984],[-103.94999,23.43175],[-103.9541,23.42599],[-103.95363,23.42006],[-103.95008,23.4202]],[[-103.91693,23.42864],[-103.92064,23.42742],[-103.92366,23.43357],[-103.91882,23.43479],[-103.91693,23.42864]]],[[[-103.89298,23.35838],[-103.89334,23.36737],[-103.89839,23.36806],[-103.89846,23.35923],[-103.89298,23.35838]]],[[[-103.91652,23.37609],[-103.92307,23.37159],[-103.91781,23.36844],[-103.91188,23.37055],[-103.91652,23.37609]]],[[[-102.63605,22.96712],[-102.63941,22.96696],[-102.63964,22.96231],[-102.63617,22.96219],[-102.63605,22.96712]]],[[[-102.74659,22.89187],[-102.74443,22.90043],[-102.75083,22.9002],[-102.75545,22.89587],[-102.75677,22.8901],[-102.74859,22.88872],[-102.74659,22.89187]]],[[[-102.73062,22.88445],[-102.73284,22.88688],[-102.73431,22.87909],[-102.73149,22.87893],[-102.73062,22.88445]]]]},"properties":{"POTENCIAL":"MEDIO"}},
{"type":"Feature","geometry":{"type":"MultiPolygon","coordinates":[[[[-102.67805,22.81622],[-102.68223,22.81679],[-102.68225,22.81679],[-102.68392,22.81544],[-102.68157,22.81013],[-102.67739,22.80948],[-102.67805,22.81622]]],[[[-102.69721,22.80645],[-102.71117,22.807],[-102.71168,22.80212],[-102.70794,22.80217],[-102.70751,22.79293],[-102.70005,22.79431],[-102.69998,22.80012],[-102.69721,22.80645]]],[[[-102.69433,22.79995],[-102.69839,22.79744],[-102.6936,22.79277],[-102.69425,22.78815],[-102.69871,22.79048],[-102.70021,22.78472],[-102.69518,22.78097],[-102.68943,22.78377],[-102.67412,22.78072],[-102.66967,22.78343],[-102.678,22.78609],[-102.67915,22.78987],[-102.6934,22.79413],[-102.69433,22.79995]]],[[[-102.68647,22.7727],[-102.69608,22.77533],[-102.69697,22.76969],[-102.70236,22.76843],[-102.70192,22.76148],[-102.69813,22.76192],[-102.67516,22.75651],[-102.67899,22.75085],[-102.67138,22.7508],[-102.66918,22.75769],[-102.67344,22.75609],[-102.67179,22.76548],[-102.66975,22.76402],[-102.66552,22.76983],[-102.67823,22.77206],[-102.67859,22.76877],[-102.68647,22.7727]]],[[[-102.62664,22.75209],[-102.63384,22.75225],[-102.63056,22.75014],[-102.62664,22.75209]]],[[[-102.6234,22.75037],[-102.62343,22.75107],[-102.62356,22.75136],[-102.62527,22.75176],[-102.6234,22.75037]]],[[[-102.6539,22.75267],[-102.65439,22.7528],[-102.65871,22.75474],[-102.66203,22.74613],[-102.66594,22.74779],[-102.66213,22.75074],[-102.66534,22.75259],[-102.67354,22.7403],[-102.68919,22.71488],[-102.67776,22.71225],[-102.67501,22.72887],[-102.6691,22.73356],[-102.66671,22.73969],[-102.65804,22.73807],[-102.65234,22.74403],[-102.65176,22.75074],[-102.6539,22.75267]]],[[[-102.60856,22.74796],[-102.61129,22.7468],[-102.61282,22.74514],[-102.60687,22.74823],[-102.60856,22.74796]]],[[[-102.70826,22.71392],[-102.71273,22.71545],[-102.71248,22.72216],[-102.70041,22.72199],[-102.70013,22.72609],[-102.70622,22.72755],[-102.72913,22.72779],[-102.72931,22.73058],[-102.72169,22.7297],[-102.72316,22.75797],[-102.72706,22.76627],[-102.72363,22.76849],[-102.73174,22.76797],[-102.73431,22.76164],[-102.73175,22.76197],[-102.72931,22.75535],[-102.73515,22.75035],[-102.72395,22.74384],[-102.73194,22.74038],[-102.7326,22.73342],[-102.73655,22.72965],[-102.73609,22.72166],[-102.73116,22.72026],[-102.7323,22.7132],[-102.72087,22.71375],[-102.71923,22.70911],[-102.71157,22.70863],[-102.71429,22.71411],[-102.70826,22.71392]]],[[[-102.70826,22.71392],[-102.71005,22.70607],[-102.70713,22.70634],[-102.70826,22.71392]]],[[[-102.69127,22.72034],[-102.69897,22.71915],[-102.69757,22.71355],[-102.69141,22.71604],[-102.69127,22.72034]]],[[[-102.70044,22.71916],[-102.705,22.71934],[-102.70367,22.71377],[-102.70062,22.71363],[-102.70044,22.71916]]],[[[-102.69899,22.71161],[-102.7039,22.70818],[-102.70562,22.69961],[-102.69945,22.69936],[-102.69197,22.71136],[-102.69899,22.71161]]],[[[-102.70714,22.70538],[-102.71187,22.69988],[-102.70735,22.701],[-102.70714,22.70538]]],[[[-102.72577,22.70322],[-102.72018,22.70299],[-102.72027,22.70605],[-102.72577,22.70322]]],[[[-102.71395,22.76672],[-102.71428,22.76891],[-102.72239,22.76855],[-102.72313,22.76635],[-102.71395,22.76672]]],[[[-102.67945,22.73889],[-102.67672,22.7426],[-102.68338,22.74267],[-102.68356,22.74036],[-102.69007,22.74045],[-102.69056,22.73568],[-102.67833,22.73606],[-102.67945,22.73889]]],[[[-102.68318,22.7273],[-102.69098,22.72931],[-102.69115,22.72275],[-102.68804,22.72263],[-102.68318,22.7273]]],[[[-102.6906,22.6795],[-102.69173,22.68105],[-102.7069,22.68629],[-102.72904,22.66662],[-102.72624,22.66481],[-102.71979,22.66637],[-102.72196,22.67011],[-102.71359,22.66776],[-102.70725,22.66861],[-102.70571,22.67113],[-102.7126,22.67325],[-102.70618,22.6762],[-102.70343,22.67235],[-102.70373,22.67905],[-102.69976,22.67852],[-102.69958,22.67428],[-102.69482,22.67515],[-102.69278,22.67129],[-102.68949,22.67351],[-102.6803,22.67181],[-102.68249,22.67545],[-102.6906,22.6795]]],[[[-102.72491,22.66428],[-102.7292,22.66554],[-102.73094,22.66071],[-102.72714,22.66016],[-102.72491,22.66428]]],[[[-102.74724,22.60841],[-102.75404,22.60916],[-102.74797,22.60622],[-102.74724,22.60841]]],[[[-101.88334,22.15114],[-101.8801,22.14821],[-101.87868,22.14978],[-101.87841,22.15375],[-101.87264,22.15498],[-101.87168,22.15592],[-101.87543,22.15616],[-101.87074,22.16236],[-101.87094,22.1632],[-101.87123,22.1632],[-101.87958,22.15639],[-101.87994,22.15112],[-101.88334,22.15114]]],[[[-102.40664,22.84608],[-102.40799,22.84618],[-102.40912,22.84627],[-102.41053,22.84513],[-102.40908,22.85031],[-102.41448,22.85304],[-102.41577,22.84355],[-102.41459,22.83815],[-102.41512,22.83695],[-102.41616,22.83518],[-102.41752,22.8351],[-102.42376,22.8352],[-102.42462,22.82872],[-102.42808,22.82427],[-102.42231,22.8248],[-102.42585,22.81711],[-102.42772,22.80879],[-102.42974,22.79103],[-102.43454,22.79146],[-102.43731,22.78689],[-102.4359,22.78119],[-102.44206,22.77334],[-102.44946,22.77115],[-102.45356,22.76276],[-102.45859,22.75867],[-102.45377,22.75172],[-102.43783,22.75293],[-102.43885,22.75761],[-102.431,22.75847],[-102.42603,22.75276],[-102.43183,22.76357],[-102.42832,22.77274],[-102.42817,22.77343],[-102.43173,22.77656],[-102.42879,22.78465],[-102.42562,22.78427],[-102.42489,22.78924],[-102.42034,22.79405],[-102.4185,22.79703],[-102.4157,22.80254],[-102.41506,22.80664],[-102.41505,22.80669],[-102.41172,22.81471],[-102.41129,22.82111],[-102.41838,22.82381],[-102.41675,22.83],[-102.41346,22.82478],[-102.4108,22.82641],[-102.40544,22.82657],[-102.40434,22.82962],[-102.40515,22.82979],[-102.40355,22.8319],[-102.39912,22.83649],[-102.40015,22.84612],[-102.40064,22.8473],[-102.40528,22.84739],[-102.40664,22.84608]]],[[[-102.42898,22.86569],[-102.43016,22.86639],[-102.434,22.86416],[-102.42888,22.86114],[-102.42525,22.85529],[-102.42405,22.86189],[-102.42898,22.86569]]],[[[-102.40419,22.85931],[-102.40946,22.85653],[-102.40994,22.85119],[-102.4042,22.85451],[-102.40419,22.85931]]],[[[-102.43842,22.86256],[-102.43589,22.85963],[-102.44131,22.85993],[-102.44442,22.85712],[-102.43271,22.85637],[-102.43842,22.86256]]],[[[-103.50614,23.02751],[-103.49615,23.02703],[-103.50412,23.03277],[-103.50653,23.02782],[-103.50614,23.02751]]],[[[-103.50568,23.01385],[-103.49069,23.01154],[-103.48982,23.01677],[-103.4934,23.02178],[-103.49847,23.02181],[-103.49959,23.01682],[-103.50605,23.01487],[-103.50568,23.01385]]],[[[-103.49935,22.99595],[-103.49897,22.99135],[-103.4984,22.9904],[-103.49643,22.98754],[-103.49046,22.98378],[-103.49162,22.9807],[-103.50052,22.98243],[-103.50142,22.98229],[-103.5024,22.98069],[-103.50203,22.97893],[-103.49487,22.97679],[-103.49651,22.97304],[-103.4913,22.97056],[-103.49135,22.96696],[-103.48407,22.96546],[-103.48841,22.96172],[-103.46715,22.95722],[-103.4669,22.95497],[-103.4606,22.9644],[-103.45949,22.97189],[-103.46486,22.9688],[-103.46888,22.97382],[-103.46626,22.97568],[-103.47606,22.98402],[-103.47525,22.98562],[-103.46469,22.97763],[-103.47031,22.9843],[-103.4696,22.98902],[-103.47331,22.99432],[-103.47901,22.99396],[-103.48048,23.00048],[-103.48554,23.00755],[-103.50096,23.01126],[-103.49755,23.00442],[-103.49639,23.00199],[-103.49705,23.00053],[-103.49907,22.99649],[-103.49935,22.99595]],[[-103.49043,22.9971],[-103.495,22.99392],[-103.49441,22.99854],[-103.49043,22.9971]],[[-103.47665,22.97951],[-103.47429,22.97415],[-103.48247,22.9745],[-103.47665,22.97951]]],[[[-103.46207,22.97609],[-103.46738,22.97289],[-103.46448,22.97019],[-103.46207,22.97609]]],[[[-103.50188,22.97053],[-103.50139,22.96681],[-103.49892,22.9638],[-103.49591,22.9647],[-103.49295,22.97071],[-103.49856,22.97296],[-103.50011,22.96941],[-103.50166,22.97607],[-103.50188,22.97053]]],[[[-103.48811,22.90824],[-103.48578,22.91072],[-103.48069,22.9246],[-103.48462,22.90971],[-103.48087,22.90342],[-103.48315,22.89383],[-103.47346,22.89417],[-103.46077,22.91203],[-103.46539,22.91431],[-103.46712,22.919],[-103.47204,22.9193],[-103.47784,22.91531],[-103.4763,22.92476],[-103.47151,22.93528],[-103.46948,22.94334],[-103.47196,22.94862],[-103.47979,22.94237],[-103.48319,22.9312],[-103.48217,22.92702],[-103.48751,22.92286],[-103.48619,22.91744],[-103.48811,22.90824]]],[[[-103.49592,22.92455],[-103.50045,22.91731],[-103.49915,22.91546],[-103.49083,22.91576],[-103.48946,22.92356],[-103.49592,22.92455]]],[[[-103.54463,22.86651],[-103.54501,22.87079],[-103.54886,22.86767],[-103.54648,22.86188],[-103.54008,22.86443],[-103.54463,22.86651]]],[[[-103.38565,22.83175],[-103.38814,22.83192],[-103.39637,22.82317],[-103.39979,22.82861],[-103.4017,22.8208],[-103.39825,22.81857],[-103.39211,22.82173],[-103.3913,22.81899],[-103.3792,22.82268],[-103.38723,22.82533],[-103.38342,22.82898],[-103.38565,22.83175]]],[[[-103.41255,22.81811],[-103.41271,22.81687],[-103.41042,22.81947],[-103.41072,22.81946],[-103.41255,22.81811]]],[[[-103.41429,22.8163],[-103.41286,22.81854],[-103.41145,22.81991],[-103.41023,22.82098],[-103.4119,22.8232],[-103.41429,22.8163]]],[[[-103.5503,23.76958],[-103.55151,23.76725],[-103.54509,23.76313],[-103.54725,23.75865],[-103.54404,23.75638],[-103.54087,23.76274],[-103.5503,23.76958]]],[[[-103.66116,23.76823],[-103.66654,23.7679],[-103.67017,23.76246],[-103.66396,23.75889],[-103.66116,23.76823]]],[[[-101.49957,22.04722],[-101.50524,22.04946],[-101.50517,22.04605],[-101.49957,22.04722]]],[[[-102.6226,22.98623],[-102.62576,22.98404],[-102.6261,22.98385],[-102.62618,22.98384],[-102.62851,22.98517],[-102.62951,22.97958],[-102.6258,22.97958],[-102.62281,22.97966],[-102.6226,22.98623]]],[[[-102.58989,23.00941],[-102.59255,23.0053],[-102.59739,23.00543],[-102.59763,22.99598],[-102.5951,22.99595],[-102.59502,23.00223],[-102.58906,23.00497],[-102.58989,23.00941]]],[[[-102.59716,22.98954],[-102.59968,22.99052],[-102.60497,22.98224],[-102.60254,22.98119],[-102.59716,22.98954]]],[[[-102.58919,22.98284],[-102.59178,22.98376],[-102.59584,22.97786],[-102.58919,22.98284]]],[[[-102.60652,22.97947],[-102.60928,22.98437],[-102.61424,22.97641],[-102.60966,22.97417],[-102.60652,22.97947]]],[[[-102.59195,22.93522],[-102.60165,22.93565],[-102.60483,22.93003],[-102.59343,22.92933],[-102.59195,22.93522]]],[[[-102.16961,22.68808],[-102.16771,22.68082],[-102.16631,22.68464],[-102.16877,22.68918],[-102.16961,22.68808]]],[[[-102.22053,22.68891],[-102.21834,22.68256],[-102.21636,22.68539],[-102.22053,22.68891]]],[[[-102.33547,22.6114],[-102.33659,22.61566],[-102.34243,22.61537],[-102.34135,22.61115],[-102.33547,22.6114]]],[[[-102.69443,22.89323],[-102.69309,22.88862],[-102.68929,22.89528],[-102.69443,22.89323]]],[[[-102.68623,22.90628],[-102.68819,22.90626],[-102.69024,22.90268],[-102.68621,22.90269],[-102.68623,22.90628]]],[[[-102.66554,22.8557],[-102.66488,22.86032],[-102.67233,22.86144],[-102.67324,22.85688],[-102.66947,22.85626],[-102.67025,22.85205],[-102.66649,22.85156],[-102.66554,22.8557]]],[[[-102.68975,22.85122],[-102.69636,22.8497],[-102.69523,22.8444],[-102.69231,22.84404],[-102.68975,22.85122]]],[[[-102.70858,22.84581],[-102.71366,22.84179],[-102.71289,22.83606],[-102.70127,22.84255],[-102.70895,22.84348],[-102.70858,22.84581]]],[[[-102.67525,22.83178],[-102.67604,22.83406],[-102.68729,22.83581],[-102.68797,22.83151],[-102.68411,22.83071],[-102.68483,22.82624],[-102.68113,22.82576],[-102.6804,22.8301],[-102.67525,22.83178]]],[[[-102.69412,22.8649],[-102.69818,22.86],[-102.69394,22.86034],[-102.69412,22.8649]]],[[[-102.71207,22.86396],[-102.71574,22.86182],[-102.71432,22.85702],[-102.71207,22.86396]]],[[[-102.68757,22.8577],[-102.69272,22.85971],[-102.69315,22.85667],[-102.68757,22.8577]]],[[[-102.71561,22.87414],[-102.72137,22.87447],[-102.72269,22.8677],[-102.71973,22.86743],[-102.71561,22.87414]]],[[[-102.66556,22.88225],[-102.65615,22.87986],[-102.65853,22.88555],[-102.66207,22.88176],[-102.66556,22.88225]]],[[[-102.66918,22.87843],[-102.66902,22.88274],[-102.66797,22.89123],[-102.67,22.89147],[-102.67219,22.88317],[-102.67459,22.88352],[-102.67785,22.87539],[-102.67368,22.87911],[-102.66918,22.87843]]],[[[-102.65406,22.879],[-102.6507,22.87597],[-102.64435,22.87489],[-102.64295,22.87831],[-102.64803,22.88389],[-102.64949,22.8801],[-102.65406,22.879]]],[[[-102.63262,22.87013],[-102.63942,22.87424],[-102.63427,22.86832],[-102.63262,22.87013]]],[[[-102.68874,22.87879],[-102.67841,22.8773],[-102.67709,22.88216],[-102.68862,22.88353],[-102.68874,22.87879]]],[[[-102.66805,22.89855],[-102.67639,22.89805],[-102.68252,22.89548],[-102.6697,22.89506],[-102.66805,22.89855]]],[[[-102.67086,22.91111],[-102.67398,22.90942],[-102.6717,22.90426],[-102.66672,22.90558],[-102.67086,22.91111]]],[[[-102.66167,22.91048],[-102.66404,22.90617],[-102.65863,22.90726],[-102.66167,22.91048]]],[[[-102.9955,22.83329],[-102.99852,22.83341],[-102.996,22.82173],[-102.99151,22.82423],[-102.99187,22.83313],[-102.9955,22.83329]]],[[[-102.9478,22.82233],[-102.94754,22.82182],[-102.94712,22.82128],[-102.9478,22.82233]]],[[[-102.81851,22.66465],[-102.82089,22.66543],[-102.82531,22.65838],[-102.83014,22.65569],[-102.82049,22.6575],[-102.81851,22.66465]]],[[[-103.06911,22.70072],[-103.07077,22.70025],[-103.07077,22.69692],[-103.07161,22.69609],[-103.07244,22.69525],[-103.06999,22.69179],[-103.06868,22.69157],[-103.06343,22.69346],[-103.06256,22.69777],[-103.06264,22.69833],[-103.06306,22.70147],[-103.06911,22.70072]]],[[[-103.06621,22.69115],[-103.06578,22.68859],[-103.06661,22.68776],[-103.06691,22.68693],[-103.06492,22.68639],[-103.064,22.69132],[-103.06621,22.69115]]],[[[-102.87692,22.57452],[-102.88036,22.58016],[-102.88492,22.5732],[-102.87949,22.57194],[-102.8769,22.5683],[-102.87692,22.57452]]],[[[-102.43468,22.74842],[-102.44551,22.74723],[-102.45234,22.75092],[-102.45205,22.74379],[-102.44448,22.74349],[-102.43913,22.73889],[-102.43488,22.74419],[-102.43468,22.74842]]],[[[-102.48466,22.74856],[-102.48759,22.74897],[-102.48477,22.73956],[-102.4781,22.73664],[-102.4685,22.73685],[-102.46631,22.74303],[-102.46991,22.74548],[-102.48224,22.74294],[-102.48174,22.74838],[-102.48466,22.74856]]],[[[-102.4893,22.74818],[-102.49325,22.74436],[-102.49023,22.74263],[-102.4893,22.74818]]],[[[-102.5291,22.65406],[-102.5317,22.65026],[-102.52816,22.64678],[-102.5227,22.64639],[-102.51889,22.65137],[-102.5291,22.65406]]],[[[-102.52804,22.64402],[-102.52929,22.64626],[-102.53506,22.64238],[-102.53099,22.6384],[-102.52804,22.64402]]],[[[-102.48266,22.63203],[-102.4816,22.62555],[-102.47764,22.6245],[-102.48266,22.63203]]],[[[-102.55625,22.56673],[-102.55282,22.56994],[-102.5592,22.57006],[-102.55625,22.56673]]],[[[-102.16556,22.67101],[-102.16272,22.67355],[-102.15914,22.6798],[-102.1605,22.68689],[-102.16341,22.68889],[-102.16598,22.68947],[-102.16087,22.67882],[-102.16806,22.67487],[-102.16556,22.67101]]],[[[-103.1765,23.12363],[-103.17648,23.12386],[-103.17702,23.12898],[-103.17777,23.13104],[-103.18785,23.13335],[-103.19146,23.12835],[-103.18666,23.1232],[-103.1765,23.12363]]],[[[-103.18064,23.12032],[-103.18483,23.12207],[-103.18857,23.11518],[-103.18002,23.11444],[-103.18064,23.12032]]],[[[-103.18969,23.09784],[-103.18401,23.09807],[-103.18357,23.09527],[-103.18068,23.09868],[-103.18919,23.10133],[-103.18969,23.09784]]],[[[-103.16526,23.10693],[-103.17091,23.10278],[-103.17428,23.09602],[-103.17032,23.08812],[-103.17409,23.07882],[-103.16524,23.0763],[-103.15982,23.07994],[-103.14877,23.07834],[-103.14829,23.08225],[-103.15492,23.0834],[-103.158,23.08668],[-103.16484,23.08526],[-103.16067,23.08963],[-103.15979,23.09569],[-103.16338,23.09696],[-103.16097,23.10635],[-103.16526,23.10693]]],[[[-102.64994,22.97733],[-102.65348,22.97427],[-102.64331,22.97857],[-102.64349,22.96941],[-102.63958,22.96887],[-102.63981,22.97781],[-102.6396,22.98155],[-102.64132,22.98569],[-102.64887,22.97849],[-102.64994,22.97733]]],[[[-102.6721,22.95139],[-102.67885,22.94629],[-102.67729,22.94273],[-102.67156,22.94469],[-102.6721,22.95139]]],[[[-102.77057,22.94279],[-102.78304,22.94272],[-102.78535,22.93845],[-102.77837,22.93818],[-102.77822,22.94047],[-102.77069,22.9403],[-102.77057,22.94279]]],[[[-102.66874,22.93121],[-102.67109,22.93691],[-102.67223,22.93095],[-102.66874,22.93121]]],[[[-102.7946,22.92391],[-102.79853,22.92408],[-102.79815,22.92985],[-102.80214,22.92965],[-102.80261,22.92092],[-102.7946,22.92391]]],[[[-102.72965,22.91578],[-102.73427,22.91615],[-102.73564,22.90946],[-102.73089,22.90909],[-102.72965,22.91578]]],[[[-102.71062,22.91168],[-102.71537,22.91217],[-102.7162,22.90834],[-102.71138,22.90792],[-102.71062,22.91168]]],[[[-102.73431,22.89574],[-102.73325,22.90096],[-102.73737,22.90128],[-102.73593,22.895],[-102.73431,22.89574]]],[[[-102.80687,22.91423],[-102.81068,22.91658],[-102.81082,22.91205],[-102.80687,22.91423]]]]},"properties":{"POTENCIAL":"ALTO"}}
]}